PK;NOMBRE;DESCRIPCION-ENTIDAD;HORARIO;EQUIPAMIENTO;TRANSPORTE;DESCRIPCION;ACCESIBILIDAD;CONTENT-URL;NOMBRE-VIA;CLASE-VIAL;TIPO-NUM;NUM;PLANTA;PUERTA;ESCALERAS;ORIENTACION;LOCALIDAD;PROVINCIA;CODIGO-POSTAL;BARRIO;DISTRITO;COORDENADA-X;COORDENADA-Y;LATITUD;LONGITUD;TELEFONO;FAX;EMAIL;TIPO;
2071;"Arte Público (Museo al Aire Libre de la Castellana)";"";"";"";" Metro: Rubén Darío (línea 5)  Bus: 5, 14, 27, 45, 150 ";"";"1";"http://www.madrid.es/vgn-ext-templating/v/index.jsp?vgnextchannel=9e4c43db40317010VgnVCM100000dc0ca8c0RCRD&vgnextoid=eca9ef4d7f71c010VgnVCM1000000b205a0aRCRD";"CASTELLANA";"PASEO";"V";"40";"";"";"";"";"MADRID";"MADRID";"28046";"CASTELLANA";"SALAMANCA";"441788";"4476277";"40.433219398671156";"-3.6876122680805956";"917 011 863  / 915 782 722 (información en Museo de Historia)";"";"smuseosm@madrid.es";"/contenido/entidadesYorganismos/MonumentosEdificiosArtisticos"; 
4949641;"Casa - Museo del Ratoncito Pérez";" La residencia de la familia Pérez está  situada en los sótanos de la confitería Prasi,  en el número ocho de la calle del Arenal, según cita Luis Coloma. ";"  Lunes  de 17 a 20 horas.  De martes a viernes de 11 a 14 horas y de 17 a 20 horas.  Sábados de 11 a 15 horas y de 16 a 20 horas (horario orientativo, consultar disponiblidad en la  web del Museo ).  Domingos y festivos de 12 a 18 horas.  ";"";" Metro: Sol (líneas: 1, 2 y 3)  Bus: 3, 50 ";" Venta de entradas directamente en el Museo   Recomendado a partir de los 5 años  Se recomienda sacar la entrada con antelación pues el aforo es limitado. ";"0";"http://www.madrid.es/vgn-ext-templating/v/index.jsp?vgnextchannel=9e4c43db40317010VgnVCM100000dc0ca8c0RCRD&vgnextoid=990950e86d4ca110VgnVCM2000000c205a0aRCRD";"ARENAL";"CALLE";"V";"8";"1º";"Local 15 - 16";"";"";"MADRID";"MADRID";"28013";"SOL";"CENTRO";"440254";"4474494";"40.41704834412296";"-3.7055288844865233";"915 226 968";"";"";"/contenido/entidadesYorganismos/Museos"; 
4847190;"Casa Museo Lope de Vega";"";" Para la visita es  imprescindible reserva anticipada  en:  casamuseolopedevega@madrid.org  o en el teléfono: 914 299 216, en horario del museo   De martes a domingo de 10 a 15 horas. Última visita a las 14 horas.  Cerrado los lunes, días 1 y 6 de enero, 5 de abril, 1 de mayo y 24, 25 y 31 de diciembre y dos festivos locales.  Este horario puede sufrir alteraciones por actividades extraordinarias que se celebran en este espacio. ";"";" Metro: Antón Martín (línea 1)   Bus: 6, 9, 10, 14, 26, 27, 32, 34, 37, 45, 57 ";" La visita se realiza en grupos de un máximo de 10 personas acompañados por un guía. Comienzan cada media hora y tienen una duración aproximada de 45 minutos (última visita a las 14 horas).   Idiomas: español, inglés y francés. ";"0";"http://www.madrid.es/vgn-ext-templating/v/index.jsp?vgnextchannel=9e4c43db40317010VgnVCM100000dc0ca8c0RCRD&vgnextoid=4eff8c46145e8110VgnVCM2000000c205a0aRCRD";"CERVANTES";"CALLE";"V";"11";"";"";"";"";"MADRID";"MADRID";"28014";"CORTES";"CENTRO";"440935";"4474190";"40.414358466555235";"-3.6974741545860015";"914 299 216";"914 292 601";"casamuseolopedevega@madrid.org";"/contenido/entidadesYorganismos/Museos"; 
5682031;"Castillo de la Alameda";"El edificio está incorporado al sistema &quot;museosdemadrid&quot; donde se realizan talleres para escolares y actividades en verano.";"  De abril a septiembre: sábados, domingos y festivos de 10 a 21 horas  De octubre a marzo: sábados, domingos y festivos de 10 a 18 horas  Cerrado los días 1 de enero, 1 de mayo y 25 de diciembre  ";"  Accesibilidad    Rampas de acceso  Servicios para minusválidos  Información en Braille para invidentes  ";" Metro: Alameda de Osuna (línea 5), El Capricho (línea 5)  Autobuses: 101, 105, 112, 114, 115 y 151 ";"  Descripción monumental   El monumento está clasificado como singular por el  PGOUM . Es uno de los escasos vestigios de la arquitectura militar del pasado siglo  XV , y uno de los pocos castillos que ha sobrevivido al paso del tiempo y resurge ahora, tras un minucioso proceso de restauración y conversión en Museo.  El lugar en el que se alza el Castillo de la Alameda o de Barajas, es un espacio donde están representadas todas las etapas de la historia de este territorio, situado entre Madrid y el valle del Jarama. Bajo él y su entorno, existen restos de asentamientos antiguos desde la Edad del Bronce hasta la época Romana.  Entre las aldeas medievales de la Alameda y Barajas, dentro del alfoz de Madrid, se construyó, en el siglo  XV , el castillo señorial, que en el siglo  XVI , se transformó en un palacio renacentista. Entre los siglos  XVI  y  XVIII , se alzan en esta zona varias villas de veraneo de la aristocracia madrileña. Entre ellas, el cercano palacete de los Duques de Osuna con su parque de El Capricho. Desde entonces, esta área se conoce con el nombre de la Alameda de Osuna.  La Guerra Civil también se deja sentir en este lugar, donde estaba situado el centro de mando del general Miaja, en la retaguardia del frente del Jarama. El mando de las operaciones estaba en el búnker de El Capricho, pero el castillo se empleó como fortín y a su lado existe un nido de ametralladoras.  La reciente urbanización del barrio ha respetado este lugar. Un parque público conserva dentro de él los vestigios de todas estas épocas: el poblado prehistórico, el castillo luego convertido en palacio, el cementerio y el panteón y el nido de ametralladoras.  El castillo y su entorno han sido objeto de varias campañas de excavaciones arqueológicas desde 1996, pero hasta ahora estas actuaciones no habían tenido continuidad ni habían constituido el germen de un proyecto que desembocase en la recuperación del yacimiento. ";"0";"http://www.madrid.es/vgn-ext-templating/v/index.jsp?vgnextchannel=9e4c43db40317010VgnVCM100000dc0ca8c0RCRD&vgnextoid=fe43c4be8e688210VgnVCM1000000b205a0aRCRD";"ANTONIO SANCHA";"CALLE";"V";"1";"";"";"";"";"MADRID";"MADRID";"28042";"ALAMEDA DE OSUNA";"BARAJAS";"449807";"4479009";"40.45835460563491";"-3.5932903820278788";"913 667 415                                     
";"";"castilloalameda@madrid.es";"/contenido/entidadesYorganismos/MonumentosEdificiosArtisticos"; 
2064;"Casón del Buen Retiro";" Edificio que forma parte del Museo Nacional del Prado, donde pueden consultarse fondos de la Biblioteca, del Archivo y del Servicio de Documentación de la colección del Museo y de otras fuentes relativas a la historia del arte. ";"  Mañanas    De lunes a jueves, de 9 a 15 horas. (Servicio de libros y otros materiales hasta las 14:30 horas)   Viernes, de 9 a 14:30 horas. (Servicio de libros y otros materiales hasta las 14 horas)     Tardes.  Lunes y miércoles, de 15 a 18 horas. (Servicio de libros y otros materiales hasta las 17:30 horas)   Horario de verano     Desde el 16 de junio al 15 de septiembre  Lunes a viernes, de 9 a 14:30 horas   ";"";" Metro: Atocha (Línea 1)  Bus: 19, 10, 14, 27, 34, 37, 45  Renfe: Atocha ";"  Descripción monumental   El Casón o Salón de Baile es el único volumen que permanece del antiguo Palacio del buen Retiro, ejecutado en 1637 con un proyecto de Alonso Carbonel. Aún se conserva la bóveda de cañon con lunetas, pintada al fresco por Lucas Jordán en 1692 con la Alegoría del Toisón de Oro. Su fachada principal, a poniente, arrasada la primitiva en 1886 por un ciclón, es de Velázquez Bosco. La última rehabilitación ha sido realizada por Jaime Torruell.   Otras direcciones de Correo electrónico:    documentacion@museodelprado.es    archivo@museodelprado.es  ";"0";"http://www.madrid.es/vgn-ext-templating/v/index.jsp?vgnextchannel=9e4c43db40317010VgnVCM100000dc0ca8c0RCRD&vgnextoid=f0443d0b5e71c010VgnVCM1000000b205a0aRCRD";"ALFONSO XII";"CALLE";"V";"28";"";"";"";"";"MADRID";"MADRID";"28014";"LOS JERONIMOS";"RETIRO";"441635";"4474285";"40.415263749471535";"-3.689232811717636";"902 107 077";"";"biblioteca@museodelprado.es";"/contenido/entidadesYorganismos/MonumentosEdificiosArtisticos"; 
103331;"Centro Social y Cultural la Casa Encendida";" Edificio de carácter monumental. De estilo neomudéjar, fue diseñado por el arquitecto Fernando Arbós e inaugurado en el año 1913. Cuenta con más de 6.000 metros cuadrados de instalaciones divididas en 4 plantas y una azotea. ";"  De lunes a domingo de 10 a 22 horas (todos los días del año, excepto festividades nacionales y de la Comunidad de Madrid)  Exposiciones: de 10 a 21:45 horas  ";"   Biblioteca  (consulta catálogo  http://catalogo.bibliotecas.obrasocialcajamadrid.es/ )   Sala de consulta y Hemeroteca: de lunes a domingos, de 10 a 21:15 horas  Mediateca y Sala de trabajo Ofimática: de lunes a domingos, de 10 a 21:15 horas  Biblioteca joven: de lunes a viernes, de 10 a 20:30, sábados y domingos de 10 a 13:30  Bebeteca: sábados y domingos de 10 a 13:30 horas     Estudio multimedia : cuenta con equipos profesionales para la edición de video con Final Cut Studio, Premiere, etc. Su uso tendrá un precio de cinco a ocho euros por turno de cinco horas dependiendo del tipo de asistencia técnica.   Laboratorio de radio:  dispone de un equipo completo de grabación y equipamiento profesional. Su uso tendrá un precio de diez euros por turnos de cinco horas.   Laboratorio fotográfico    Tienda solidaria:  consultar horario   Cafetería:  todos los días, excepto festivos, de 10 a 21:45 horas  ";" Metro: Embajadores (línea 3), Lavapies (línea 3), Atocha (línea 1)   Bus: 27, 34, 36, 41, 68, 69, 119   Renfe: Embajadores ";"";"1";"http://www.madrid.es/vgn-ext-templating/v/index.jsp?vgnextchannel=9e4c43db40317010VgnVCM100000dc0ca8c0RCRD&vgnextoid=c27f8899fc81c010VgnVCM1000000b205a0aRCRD";"VALENCIA";"RONDA";"V";"2";"";"";"";"";"MADRID";"MADRID";"28012";"EMBAJADORES";"CENTRO";"440732";"4473259";"40.40595710517701";"-3.699779793558763";"902 430 322                                 
";"915 063 876";"casaencendida@cajamadrid.es";"/contenido/entidadesYorganismos/MonumentosEdificiosArtisticos"; 
3350;"Claustro de San Jerónimo el Real (Los Jerónimos)";"";"";"";"Bus: 10 , 14 , 19 , 27 , 34 , 37 , 45";"";"0";"http://www.madrid.es/vgn-ext-templating/v/index.jsp?vgnextchannel=9e4c43db40317010VgnVCM100000dc0ca8c0RCRD&vgnextoid=8f947b503a71c010VgnVCM1000000b205a0aRCRD";"MORETO";"CALLE";"V";"4";"";"";"";"";"MADRID";"MADRID";"28014";"LOS JERONIMOS";"RETIRO";"441524";"4474184";"40.414346084679714";"-3.6905317543061407";"91 420 35 78&#13;
";"";"";"/contenido/entidadesYorganismos/MonumentosEdificiosArtisticos"; 
6469186;"Ermita de San Antonio de la Florida (Museo)";" Ermita dedicada a San Antonio de Padua y pequeño museo. Las pinturas murales que la decoran son de Francisco de Goya. Alberga los restos mortales del artista desde 1919. Para preservar sus pinturas, en 1929 se trasladó el culto a una ermita gemela construida a su lado, dejando el edificio original como museo. ";"  De martes a domingos y festivos de 9:30 a 20 horas.   Cerrado  los lunes, incluidos festivos y días 1 de enero, 1 de mayo y 25 de diciembre.   Último pase de visita:  20 minutos antes del cierre (el desalojo de las salas comenzará 10 minutos antes)   Por motivos de conservación, el aforo máximo es de 50 personas en el interior de la capilla.  Este horario y la apertura de salas pueden sufrir modificaciones, por favor, confírmelo en el teléfono de información del museo.  ";" Tienda, en la que se pueden adquirir las guías y publicaciones sobre la ermita editadas por el Museo y otros organismos públicos, así como catálogos y publicaciones de instituciones culturales del Ayuntamiento de Madrid. ";" Metro: Príncipe Pío (líneas 5, 10 y ramal Ópera - Príncipe Pío)  Bus: 41, 46 y 75 (Intercambiador Príncipe Pío)  Renfe: Príncipe Pío ";"";"0";"http://www.madrid.es/vgn-ext-templating/v/index.jsp?vgnextchannel=9e4c43db40317010VgnVCM100000dc0ca8c0RCRD&vgnextoid=75950204770e7310VgnVCM2000000c205a0aRCRD";"SAN ANTONIO DE LA FLORIDA";"GLORIETA";"V";"5";"";"";"";"";"MADRID";"MADRID";"28008";"CASA DE CAMPO";"MONCLOA-ARAVACA";"438548";"4475419";"40.425256682855846";"-3.725725718176111";"915 420 722 / 917 011 863                                                                                        
";"917 011 686";"sanantonio@madrid.es";"/contenido/entidadesYorganismos/MonumentosEdificiosArtisticos"; 
58353;"Espacio Fundación Telefónica";"";" De martes a domingo, de 10 a 20 horas.  Cerrado al público todos los lunes y los festivos 25 de diciembre y días 1 y 6 de enero. ";"  Accesos y espacios habilitados para personas con movilidad reducida, aseos adaptados y con cambiador de pañales, ascensor, zonas de descanso y silla de ruedas para uso en las salas.  Tabletas con guía multimedia de las exposiciones, disponibles en el mostrador de información.  Conexión WIFI.  ";" Metro: Gran Vía (líneas 1 y 5)  Bus: 1, 2, 46, 74, 146, 202 ";"  Teléfonos:    Visitas guiadas y talleres educativos: 915 225 645  Reserva de salas y eventos: 915 840 440 / 915 840 646    Correo electrónico:     Información general .   Visitas guiadas y talleres educativos .   Reserva de salas y eventos .   Tienda abierta de martes a domingo, de 10 a 20 horas. ";"1";"http://www.madrid.es/vgn-ext-templating/v/index.jsp?vgnextchannel=9e4c43db40317010VgnVCM100000dc0ca8c0RCRD&vgnextoid=87748ed67151c010VgnVCM2000000c205a0aRCRD";"FUENCARRAL";"CALLE";"V";"3";"";"";"";"";"MADRID";"MADRID";"28004";"UNIVERSIDAD";"CENTRO";"440590";"4474865";"40.42041458612889";"-3.7016034186955076";"915 808 700 (información general)";"";"";"/contenido/entidadesYorganismos/Museos"; 
6017808;"Fundación AMYC (Arte Moderno y Contemporáneo). Casa - Museo Fuente del Rey";"";" De lunes a viernes de 10 a 19 horas. Sábados y domingos cerrado.   Visitas  guiadas y concertadas con cita previa. ";" Siguiendo la iniciativa del mecenazgo de Francisco Daurella, en 2009 decide crear la Fundación  AMYC , para la que recupera, rehabilita y acondicona una casa de uso privado para transformala en Casa - Museo. En sus instalaciones acogerá diferentes salas expositivas y una sala polivalente para actos culturales. El eje principal de la colección de más de 250 obras, es dar una visión muy dinámica de lo sucedido entre fianles del siglo  XIX  y mediados del siglo  XX . ";"Bus: 161, I";"";"0";"http://www.madrid.es/vgn-ext-templating/v/index.jsp?vgnextchannel=9e4c43db40317010VgnVCM100000dc0ca8c0RCRD&vgnextoid=5c1260101310f210VgnVCM1000000b205a0aRCRD";"FUENTE DEL REY";"CALLE";"V";"11";"";"";"";"";"MADRID";"MADRID";"28023";"ARAVACA";"MONCLOA-ARAVACA";"434772";"4478804";"40.45546180290319";"-3.7705836264842576";"913 579 116";"913 575 989";"info@fundacionamyc.org";"/contenido/entidadesYorganismos/FundacionesCulturales"; 
3348;"Monasterio de las Descalzas Reales";" Convento fundado por la Princesa Juana de Austria, transformando un antiguo palacio de su madre Isabel de Portugal. ";" Sólo con visita guiada.    De martes a sábado de 10 a 14 horas y de 16 a 18:30 horas  Domingos y festivos, de 10 a 15 horas y tardes cerrado  Cierre de taquillas una hora antes  Cerrado: días 1, 6 de enero; Semana Santa (del 16 al 19 de abril, inclusive); 1 de mayo; 10 de noviembre; 24, 25 y 31 de diciembre de 2014  Abierto: 15 de mayo y 8 de diciembre de 2014  Abierto horario domingo: 2 de mayo; 19 de junio; 15 de agosto; 1 de noviembre y 6 de diciembre de 2014    Atención telefónica:    De lunes a sábados de 9:30 a 17 horas  Domingos y festivos de 9 a 14 horas  ";"";" Metro: Callao (líneas 3, 5) , Santo Domingo (línea 2) , Sol (líneas 1, 2, 3) Gran Vía (líneas 1, 5)  Bus: 1, 2, 3, 5, 15, 20, 25, 39, 40, 44, 46, 50, 51, 52, 53, 74, 75, 133, 146, 147, 148, 149, 150, 202 ";"";"0";"http://www.madrid.es/vgn-ext-templating/v/index.jsp?vgnextchannel=9e4c43db40317010VgnVCM100000dc0ca8c0RCRD&vgnextoid=12e113db5b71c010VgnVCM1000000b205a0aRCRD";"DESCALZAS";"PLAZA";"V";"3";"";"";"";"";"MADRID";"MADRID";"28013";"SOL";"CENTRO";"440197";"4474626";"40.418233359889484";"-3.706213134639163";"914 548 800 (Información, en Palacio Real)                                       
";"915 212 779";"";"/contenido/entidadesYorganismos/MonumentosEdificiosArtisticos"; 
5873478;"Museo ABC";"Centro de arte, dibujo e ilustración. ";"  De martes a sábado de 11 a 20 horas  Domingos de 10 a 14 horas  Festivos de 11 a 20 horas  Lunes cerrado   Visitas guiadas:  de martes a viernes (consultar horario en el teléfono del museo).  ";"";" Metro: San Bernardo (líneas 2 y 4), Noviciado (línea 2), Ventura Rodríguez (línea 3), Plaza de España (líneas 3 y 10)  Bus: M2, 3, 147 ";"";"0";"http://www.madrid.es/vgn-ext-templating/v/index.jsp?vgnextchannel=9e4c43db40317010VgnVCM100000dc0ca8c0RCRD&vgnextoid=f0103fee6537c210VgnVCM1000000b205a0aRCRD";"AMANIEL";"CALLE";"V";"29";"";"";"";"";"MADRID";"MADRID";"28015";"UNIVERSIDAD";"CENTRO";"439922";"4475646";"40.42740213531285";"-3.70955095379701";"917 588 379";"";"";"/contenido/entidadesYorganismos/Museos"; 
2067;"Museo Africano Mundo Negro";"Situado en los locales de los Misioneros de Madrid y abierto al público en 1985, se propone divulgar la cultura africana, promoviendo el conocimiento de la vida, de la historia y de las diversas culturas africanas. ";"   Grupos con cita previa : de lunes a sábado   Particulares  (visitas guiadas): domingos a las 11,30 horas   Cerrado : julio, agosto y septiembre  ";"";"Bus: 11, 70, 114, 122 ";"";"0";"http://www.madrid.es/vgn-ext-templating/v/index.jsp?vgnextchannel=9e4c43db40317010VgnVCM100000dc0ca8c0RCRD&vgnextoid=6ab8ef4d7f71c010VgnVCM1000000b205a0aRCRD";"ARTURO SORIA";"CALLE";"V";"101";"";"";"";"";"MADRID";"MADRID";"28043";"SAN JUAN BAUTISTA";"CIUDAD LINEAL";"444864";"4478056";"40.449455579055886";"-3.651503432956766";"914 152 412";"915 192 550";"";"/contenido/entidadesYorganismos/Museos"; 
2050;"Museo Arqueológico Nacional";" Construído en 1866 según proyectos de Jareño y Alarcón y terminado por Ruiz de Salces. Ocupa el mismo edificio que la Biblioteca Nacional. De estilo neoclásico. ";" De martes a sábado de 9:30 a 20 horas. Domingo y festivos de 9:30 a 15 horas.  Cerrado todos los lunes, 1 y 6 de enero, 1 de mayo y 24, 25 y 31 de diciembre y un festivo local (15 de mayo en 2014) ";"  Sistema de bucle inductivo de audio para personas con problemas de audición en la proyección audiovisual  y áreas de atención a público  Acceso para personas con movilidad reducida   Actividades culturales y didácticas   Visitas para grupos previa concertación de cita   Publicaciones   Servicio fotográfico  ";" Metro: Serrano (línea 4), Colón (línea 4), Velazquez (línea 4)  Bus: 1, 2, 5, 9, 14, 15, 19, 20, 21, 27, 28, 45, 51, 52, 53, 74, 146, 150  Renfe: Recoletos ";" Los grupos de cinco o más personas tendrán una reducción del 50% en el precio de la entrada, previa reserva.   Grupos escolares:  La visita de los grupos escolares es gratuita. El grupo debe contar con un profesor o persona responsable por cada 20 alumnos.  La guia multimedia es un dispositivo que mejora las prestaciones de las tradiciones audioguias, trasmitiendo la informacion sobre la exposición en diversos formatos: texto, imagen, vídeo y audio.  Ofrece un recorrido general con informac&iexcl;ón en español, inglés y lengua de signos, así como un recorrido específcio para personas con discapacidad visual ";"1";"http://www.madrid.es/vgn-ext-templating/v/index.jsp?vgnextchannel=9e4c43db40317010VgnVCM100000dc0ca8c0RCRD&vgnextoid=8fd8ef4d7f71c010VgnVCM1000000b205a0aRCRD";"SERRANO";"CALLE";"V";"13";"";"";"";"";"MADRID";"MADRID";"28001";"RECOLETOS";"SALAMANCA";"441708";"4475173";"40.42326842040792";"-3.6884539762461968";"915 777 912                              
                                              
";"";"sugerencias@man.es";"/contenido/entidadesYorganismos/Museos"; 
2072;"Museo Casa de la Moneda";" El Museo de la Fábrica Nacional de la Moneda y Timbre, contiene importantes colecciones numismáticas, grabados, dibujos, moldes y troqueles de los siglos  XVI ,  XVII  y  XVIII , cubriendo la historia de la moneda desde el siglo  VII a.C.  hasta nuestros dias. ";" De martes a viernes ininterrumpidamente de 10 a 17:30 horas. Sábados, domingos y festivos de 10 a 14 horas.  Cerrado los lunes, y los días 1, 4 y 5 de enero; 17, 18, 19 y 20 de abril; 1 y 2 de mayo; 19 de junio; 23, 24, 25 y 31 de diciembre. ";"El público puede acuñar una moneda durante su visita. Accesible a personas con minusvalía (física y sensorial). Visitas guiadas e introduce la lengua de signos para personas sordas ";" Metro: O&acute;Donnell (línea 6)  Bus: 2, 28, 30, 56, 71, 143, C, N6 ";"";"1";"http://www.madrid.es/vgn-ext-templating/v/index.jsp?vgnextchannel=9e4c43db40317010VgnVCM100000dc0ca8c0RCRD&vgnextoid=12f8ef4d7f71c010VgnVCM1000000b205a0aRCRD";"DOCTOR ESQUERDO";"CALLE";"V";"36";"";"";"";"";"MADRID";"MADRID";"28028";"GOYA";"SALAMANCA";"443345";"4475085";"40.42258896520152";"-3.6691501169061067";"915 666 544                 
";"915 666 809";"museo@fnmt.es";"/contenido/entidadesYorganismos/Museos"; 
4112;"Museo Cerralbo";" Este Palacio, construido entre 1883 y 1893, fue concebido como vivienda y como museo para sede de las obras de arte reunidas por los Marqueses de Cerralbo y sus hijos, los Marqueses de Villa Huerta, durante los numerosos viajes que realizaron por España y Europa.   Objetivos y Fines de la Fundación Cerralbo (en la misma sede)    Velar porque las colecciones no se disgreguen ni enajenen y permanezcan reunidas en su sede de Ventura Rodríguez.   Conceder premios y becas para artistas e investigadores y celebrar actos culturales.   Colaborar en la custodia, exhibición y mejora del patrimonio que el Estado heredó del Marqués, perpetuando así su memoria.   ";"  De martes a sábado de 9:30 a 15 horas  Jueves de 17 a 20 horas (apertura gratuita, excepto festivos)  Domingos y festivos de 10 a 15 horas  Lunes, cerrado  Jueves y Viernes Santo tienen el horario de los días festivos  Visitas guiadas, previa reserva, los martes y miércoles y, sin reserva, los jueves , viernes y sábados, a cargo de los voluntarios culturales de la Confederación de Aulas de la Tercera Edad  ";"  Biblioteca  Sala de Exposiciones  Sala de Conferencias  Gabinete dietético  Gabinete de dibujo y laboratorio de restauración  ";" Metro: Ventura Rodríguez (línea 3), Plaza de España (líneas 3 y 10)  Bus: 1, 2, 3, 25, 39, 44, 46, 74, 75, 133, 138, 148, 202, 749, C1, C2 ";"  Visitas guiadas gratuitas  con reserva previa los martes y miércoles (a partir de septiembre se podrá reservar para el últilmo trimestre del año), y sin reserva los jueves, viernes y sábados, a cargo de los voluntarios culturales de la Confederación de Aulas de la Tercera Edad. Esta actividad seguirá en curso hasta finales de junio. ";"1";"http://www.madrid.es/vgn-ext-templating/v/index.jsp?vgnextchannel=9e4c43db40317010VgnVCM100000dc0ca8c0RCRD&vgnextoid=a4efb0c40971c010VgnVCM1000000b205a0aRCRD";"VENTURA RODRIGUEZ";"CALLE";"V";"17";"";"";"";"";"MADRID";"MADRID";"28008";"ARGUELLES";"MONCLOA-ARAVACA";"439489";"4475246";"40.42376732078657";"-3.7146170388153497";"915 473 646 / 47";"915 591 171";"museo.cerralbo@mecd.es";"/contenido/entidadesYorganismos/Museos"; 
18176;"Museo Colecciones del Instituto de Crédito Oficial (ICO)";" El Museo Colecciones  ICO  abrió sus puertas al público en marzo de 1996. Su objetivo era difundir la colección de arte del Instituto de Crédito Oficial, una de las más importantes de arte español contemporáneo.  ";"  De martes a sábado: de 11 a 20 horas  Domingo y festivos: de 10 a 14 horas  Cerrado: todos los lunes del año (incluidos festivos) y los días 1 de enero, 1 de mayo y 25 de diciembre   Los días 24 y 31 de diciembre el Museo ICO permanecerá abierto de 10 a 14 horas.   ";"  Colecciones:  Suite Vollard, de Pablo Picasso - Pintura Española Contemporánea - Escultura Moderna Española con Dibujo.   Servicios:  además de exponer y difundir sus propios fondos, trabaja en la realización de exposiciones temporales que parten, principalmente, de tres líneas. La primera está dedicada a la realización de exposiciones de  arquitectura y diseño , tanto de arquitectos nacionales como de ámbito internacional. La segunda línea se dedica a la colaboración anual que el museo mantiene con el festival de fotografía  PHotoEspaña  y que ha permitido la exposición de reputados artistas como Man Ray o Dorothea Lange. Por último, la tercera de estas líneas está dedicada a la difusión de la  obra poco conocida de artistas presentes en las colecciones  ICO .  Esta política expositiva ha permitido conocer nuevas facetas de artistas como Susana Solano, Guillermo Pérez Villalta o Darío Urzay.  ";" Metro: Banco de España (línea 2) , Sevilla (línea 2)  Bus: 5, 9, 15, 10, 14, 27, 34, 37, 45, 51, 150 ";"";"1";"http://www.madrid.es/vgn-ext-templating/v/index.jsp?vgnextchannel=9e4c43db40317010VgnVCM100000dc0ca8c0RCRD&vgnextoid=2886444a2951c010VgnVCM2000000c205a0aRCRD";"ZORRILLA";"CALLE";"V";"3";"";"";"";"";"MADRID";"MADRID";"28014";"CORTES";"CENTRO";"440915";"4474456";"40.41675330128869";"-3.6977346235068373";"914 201 242";"";"museoico@ico.es";"/contenido/entidadesYorganismos/Museos"; 
2068;"Museo de Aeronáutica y Astronáutica";" Emplazado en Cuatro Vientos desde 1966, tiene como objetivo narrar la historia y el desarrollo científico-técnico de la Aeronáutica y Astronaútica españolas con 150 aeronaves, uniformes, condecoraciones, maquetas, armamento y una destacada colección de motores en 70.000  m2  , distribuidos en siete hangares y siete plataformas al aire libre.  ";" De martes a domingo de 10 a 14 horas, a partir de las 13:30 no se permite la entrada de público.  Cerrado: los lunes, días 1 y 6 de enero, Jueves y Viernes Santo, 12 de octubre,  días 10, 24, 25 y 31 de diciembre y el mes de agosto ";"Aparcamiento gratuito, cafetería, tienda - librería, salón de actos. ";" Bus: 518 , 521 , 522 , 523 (salida: Príncipe Pío).   Metro: Cuatro Vientos   Vehículo particular: Entrada por la A-V, en sentido Madrid, Km. 10.500 (carretera de Extremadura). Ver plano entrada al Museo en documentación asociada.  ";"  Visitas de grupo:  previa petición de cita  ";"1";"http://www.madrid.es/vgn-ext-templating/v/index.jsp?vgnextchannel=9e4c43db40317010VgnVCM100000dc0ca8c0RCRD&vgnextoid=90aaef4d7f71c010VgnVCM1000000b205a0aRCRD";"A-5";"AUTOVIA";"T";"10.500";"";"";"";"Km. 10,5";"MADRID";"MADRID";"28024";"CUATRO VIENTOS";"LATINA";"432348";"4469705";"40.3733013700739";"-3.798200034372686";"915 091 690 (centralita) / 915 095 644 (reserva de actividades)";"917 106 847";"";"/contenido/entidadesYorganismos/Museos"; 
2091;"Museo de América";"Colecciones arqueológicas, etnográficas y de arte colonial traídas a España entre los siglos XVI y XX, cuya temática abarca desde la Prehistoria americana hasta la actualidad. Destacan el Tesoro de los Quimbayas, los Enonchados de la Conquista de México y las colecciones europeas más antiguas sobre los indios de las praderas.";"  Horario:    De martes a sábado, de 9:30 a 15 horas  Jueves, apertura continuada de 9:30 a 19 horas  Domingos y festivos de 10 a 15 horas     Cerrado:  todos los lunes del año, día 1 y 6 de enero, día 1 de mayo, días 24, 25 y 31 de diciembre y un festivo local. ";" Biblioteca - Tienda - Cafetería - Accesible a personas con minusvalía (física) - Visita guiada para grupos - Visitas guiadas a las piezas más representativas de las colecciones del museo (sábados a las 11 horas) - Club de Lectura   ";" Bus: 1, 12, 44, 82, 132  Metro: Moncloa (Líneas 3, 6) ";" Inscripción en el teléfono 915 439 437  Sitio web:  Migrar es cultura , para mostrar diversidad, intercambio y pluralismo cultural derivados de las migraciones, a base de diferentes canales temáticos y compuesta por textos, fotografías y sobre todo videos cortos, elaborados por los propios internautas   ";"1";"http://www.madrid.es/vgn-ext-templating/v/index.jsp?vgnextchannel=9e4c43db40317010VgnVCM100000dc0ca8c0RCRD&vgnextoid=c929ef4d7f71c010VgnVCM1000000b205a0aRCRD";"REYES CATOLICOS";"AVENIDA";"V";"6";"";"";"";"";"MADRID";"MADRID";"28040";"CIUDAD UNIVERSITARIA";"MONCLOA-ARAVACA";"438889";"4476828";"40.43797469898852";"-3.721841843311362";"915 439 437 / 915 492 641";"915 446 742";"";"/contenido/entidadesYorganismos/Museos"; 
83922;"Museo de Arte Contemporáneo de Madrid (cerrado)";" Se ubica en el histórico Caurtel del Conde Duque, obra de principios del siglo XVIII del arquitecto Pedro de Ribera. Al igual que otros museos de arte contemporáneo,nacionales o extranjeros, se ha utilizado un edificio histórico para albergar las colecciones de ate contemporáneo del Ayuntamiento de Madrid con arreglo a un programa de rehabilitación integral del edificio para usos y servicios culturales, de acuerdo a la legislación sore accesibilidad vigente en nuestra Comunidad /Ley 8 /1993 de 22 de junio de Promoción de la Accesibilida y Supresión de Barreras Arquitectónicas) ";"  De martes a viernes de 10 a 14 y de 17:30 a 21 horas  Ságados, domingos y festivos de 10:30 a 14:30 horas.  Cerrado los lunes (incluso festivos) y días 1 y 6 de enero, 1 de mayo y 25 de diciembre   El horario de taquilla finaliza 20 minutos antes de la hroa de cierre del museo.   Las salas se desalojan 15 minutos antes del cierre. ";"  Personal de información en el mostrador ubicado en el acceso central del museo y a lo largo de todo el recorrido, distribuidos por todo el museo  Cafería  Tienda  Guardarropa y servicio de consignas  Zonas adaptadas para bebés, con cambiadores y servicios de familia  Zona wifi en cafetería y biblioteca  Servicio médico  Aparcamiento para bicicletas, frente a la entrda principal del edificio de Conde Duque    Accesibilidad:  cuenta en la actualidad con accesos y servicios adaptados a minusválidos a lo largo de todo su recorrido.   ";" Metro: Ventura Rodríguez (línea 3), Plaza de España líneas 3, 10), San Bernardo (líneas 2, 4), Noviciado (línea7, 10)  Bus: 1, 2, 21, 44, 74, 133, C, M2  Renfe: Príncipe Pío  Aparcamiento público: plaza de España (accesible) ";"";"1";"http://www.madrid.es/vgn-ext-templating/v/index.jsp?vgnextchannel=9e4c43db40317010VgnVCM100000dc0ca8c0RCRD&vgnextoid=84a55c2cdc41c010VgnVCM2000000c205a0aRCRD";"CONDE DUQUE";"CALLE";"V";"9";"";"";"";"";"MADRID";"MADRID";"28015";"UNIVERSIDAD";"CENTRO";"439832";"4475644";"40.42737760210632";"-3.7106116887809817";"915 885 928  /  915 885 861";"";"mmacmdifusion@madrid.es";"/contenido/entidadesYorganismos/Museos"; 
2069;"Museo de Artes y Tradiciones Populares. Centro Cultural La Corrala";" El Museo se forma tras la donación de la colección de Guadalupe González Hontoria a la Universidad Autónoma de Madrid. Las piezas comprenden:   El ciclo vital humano y religiosidad popular  El ciclo festivo anual, instrumentos musicales, bailes y juegos de adultos  Tareas domésticas  Agricultura, ganadería, caza y pesca  Los oficios artesanales y transporte rural.  ";"Permanece abierto al público de lunes a viernes con horario de 10 a 14 horas y de 17 a 21 horas. Sábados de 10 a 14 horas";" Visitas guiadas previa cita en el teléfono del Museo o en  visitas.atp@mam.es  ";" Metro: La Latina (línea 5)  Bus: 41, 60, 148 y Circular  Renfe: Embajadores /Atocha ";"";"0";"http://www.madrid.es/vgn-ext-templating/v/index.jsp?vgnextchannel=9e4c43db40317010VgnVCM100000dc0ca8c0RCRD&vgnextoid=5c39ef4d7f71c010VgnVCM1000000b205a0aRCRD";"CARLOS ARNICHES";"CALLE";"V";"3-5";"";"";"";"";"MADRID";"MADRID";"28005";"EMBAJADORES";"CENTRO";"440008";"4473583";"40.408814891299514";"-3.7083421466389113";"914 976 500";"914 976 510";"museoatp@uam.es";"/contenido/entidadesYorganismos/Museos"; 
2092;"Museo de Astronomía y Geodesia";" La colección se compone de objetos relacionados con el mundo de la Astronomía, como teodolitos, cronómetros, brújulas topográficas, sextantes giroscópicos, astrolabios de prisma, cámaras fotográficas para eclipse,  etc   ";"Visita con cita previa";"";"Bus: 82 , F , 132 , I , G ";"";"0";"http://www.madrid.es/vgn-ext-templating/v/index.jsp?vgnextchannel=9e4c43db40317010VgnVCM100000dc0ca8c0RCRD&vgnextoid=ee49ef4d7f71c010VgnVCM1000000b205a0aRCRD";"CIENCIAS";"PLAZA";"V";"3";"";"";"";"";"MADRID";"MADRID";"28040";"CIUDAD UNIVERSITARIA";"MONCLOA-ARAVACA";"438528";"4478102";"40.44942472705852";"-3.7262214898219117";"913 944 615";"913 944 615";"";"/contenido/entidadesYorganismos/Museos"; 
5727435;"Museo de Bomberos";"";" Abierto todos los días de  09:30  a  14:00  horas, excepto 25 de diciembre, 1 enero,  6 de enero y 1 de mayo.    Nota:  El museo permanecera cerrado hasta octubre de 2015 por obras de acondicionamiento.     Visitas Guiadas  Se pueden concertar en el teléfono: 91 478 65 72 ( Museo )  Más información: 91 588 99 07 - 91 588 82 40  ";"   Exposición fotográfica  Un recorrido por toda su historia: grandes incendios, construcción de los primeros parques, bomberos fallecidos en acto de servicio...   Vehículos  Una amplia gama de los vehículos utilizados en los últimos 400 años: Las primeras bombas brazales, clásicos de los años veinte y vehículos adaptados de la II Guerra Mundial.   Herramientas y equipos  Diferentes escalas de gancho, extintores primitivos o las primeras lonas de salvamento nos dan una idea de cómo han trabajado los bomberos en los últimos siglos así como herramientas de distintas épocas que nos muestran el avance tecnológico en la lucha contra el fuego y salvamento.   Cascos  Amplia exposición en la que se muestra la evolución de los cascos en Madrid. Además se expone una colección internacional en la que se aprecia, en su diseño, la mezcla de protección, materiales y comodidad en los diferentes países del mundo.   Uniformes  De época, trajes de gala, así como varios modelos que fueron utilizados en sucesos destacados de la historia de Madrid. Completan esta colección varios trajes de aproximación al fuego y protección química especial entre otros.   Comunicaciones  Antiguamente los bomberos se comunicaban mediante toques de corneta. Esta exposición muestra las partituras con sus particulares comandas. Además, la exposición incluye la evolución de los equipos de comunicaciones.   Sanitario  Una cámara de recuperación respiratoria para los bomberos intoxicados por el humo en los fuegos es uno de los mayores atractivos de este área.  ";"  Metro : L1- Buenos Aires  Bus : 141 y 143 ";"  Abierto al público en 1982, reúne todos los instrumentos usados por los bomberos durante más de cuatro siglos.      Acceso para minusválidos        Entrada gratuita      Apropiado para niños                Visita para grupos con cita previa  ";"0";"http://www.madrid.es/vgn-ext-templating/v/index.jsp?vgnextchannel=9e4c43db40317010VgnVCM100000dc0ca8c0RCRD&vgnextoid=9f0966a8bba49210VgnVCM2000000c205a0aRCRD";"BOADA";"CALLE";"V";"4";"";"";"";"";"MADRID";"MADRID";"28038";"NUMANCIA";"PUENTE DE VALLECAS";"444613";"4471961";"40.39453171263195";"-3.6539313207612207";"91 478 65 72 (Museo),                                                                                                                  
                                                                                                                      
";"";"sgbomberos@madrid.es";"/contenido/entidadesYorganismos/Museos"; 
2090;"Museo de Calcografía Nacional";" Expone colecciones de planchas y grabados.  ";"  De octubre a junio de lunes a viernes de 9 a 17 horas.  Verano: de julio a septiembre de 9 a 15 horas.   Agosto cerrado   En el caso de que se celebren exposiciones, consultar horario, ya que puede variar.  ";"Sala de exposiciones - Biblioteca";" Metro: Sol (Líneas 1, 2, 3), Sevilla (Línea 2)  Bus: 5, 15, 20, 51, 52, 53, 150 ";"";"0";"http://www.madrid.es/vgn-ext-templating/v/index.jsp?vgnextchannel=9e4c43db40317010VgnVCM100000dc0ca8c0RCRD&vgnextoid=7169ef4d7f71c010VgnVCM1000000b205a0aRCRD";"ALCALA";"CALLE";"V";"13";"";"";"";"";"MADRID";"MADRID";"28014";"SOL";"CENTRO";"440667";"4474557";"40.41764548040709";"-3.700667044636178";"915 240 864";"915 240 977";"calcografianacional.delegado@rabasf.org";"/contenido/entidadesYorganismos/Museos"; 
2084;"Museo de Cera";"";" De lunes a viernes de 10 a 14,30 y de 16,30 a 20,30 horas.  Sábados, domingos y festivos de 10 a 20,30 horas.  Los días 25 de diciembre y 1 de enero, el museo abre de 10 a 14:30 horas y de 16:30 a 20:30 horas.  Las taquillas cierran media hora antes. ";"Apropiado para niños";" Metro: Colón  Bus: 5 , 14 , 21 , 27 , 45 , 53 , 15  Renfe: Recoletos ";"";"1";"http://www.madrid.es/vgn-ext-templating/v/index.jsp?vgnextchannel=9e4c43db40317010VgnVCM100000dc0ca8c0RCRD&vgnextoid=9689ef4d7f71c010VgnVCM1000000b205a0aRCRD";"RECOLETOS";"PASEO";"V";"41";"";"";"";"";"MADRID";"MADRID";"28004";"JUSTICIA";"CENTRO";"441456";"4475301";"40.424403779665376";"-3.6914362030084815";"913 194 681";"913 080 825";"info@museoceramadrid.com";"/contenido/entidadesYorganismos/Museos"; 
2108;"Museo de Farmacia Militar";"Superficie de 600  m/2  donde se exponen fondos de carácter histórico y científico. Las colecciones abarcan desde los orígenes de la ciencia farmacéutica, recreado en el laboratorio yatroquímico del siglo XVII, hasta los actuales procesos para la elaboración de preparados.";" De lunes a viernes de 10 a 13 horas, sólo visitas concertadas ";"";" Metro: Embajadores (línea 3)  Bus: 27 , 34 , 36 , 41 , 60 , 78 , 116 , 119 , 148 , C  Renfe :  Embajadores ";"";"0";"http://www.madrid.es/vgn-ext-templating/v/index.jsp?vgnextchannel=9e4c43db40317010VgnVCM100000dc0ca8c0RCRD&vgnextoid=ea0aef4d7f71c010VgnVCM1000000b205a0aRCRD";"EMBAJADORES";"CALLE";"V";"75";"";"";"";"";"MADRID";"MADRID";"28012";"PALOS DE MOGUER";"ARGANZUELA";"440636";"4472954";"40.403202661477145";"-3.7008825895813167";"915 399 503            
";"915 302 707";"smunort@oc.mde.es";"/contenido/entidadesYorganismos/Museos"; 
4545827;"Museo de Historia de la Comunidad Judía de Madrid";"";"  Visitas guiadas     Individual : último jueves de cada mes a las 19 horas, salvo festividades (confirmar previamente).   Grupos  (mínimo 10 personas): consultar teléfono: 915 913 131 (Ext. 4 o correo electrónico:  visita@cjmadrid.org   ";"";" Metro: Iglesia (línea 1)  Bus: 5, 12, 16, 37, 61, 149  ";"";"0";"http://www.madrid.es/vgn-ext-templating/v/index.jsp?vgnextchannel=9e4c43db40317010VgnVCM100000dc0ca8c0RCRD&vgnextoid=8f2a4a659ee71110VgnVCM1000000b205a0aRCRD";"BALMES";"CALLE";"V";"3";"";"";"";"";"MADRID";"MADRID";"28010";"TRAFALGAR";"CHAMBERI";"440738";"4476521";"40.43534317115623";"-3.700013620203689";"915 913 131 ";"";"secretaria@cjmadrid.org";"/contenido/entidadesYorganismos/Museos"; 
4591873;"Museo de la Biblioteca Nacional";" El Museo cuenta con unos 1.400 m2 y se distribuye en ocho salas.  ";" De martes a sábados de 10 a 20 y domingos de 10 a 14 horas. Lunes cerrado. Último pase treinta minutos antes del cierre. Entrada gratuita.   Días de cierre   Para 2014: 1 y 6 de enero, 1 de mayo, 10 de noviembre y 8, 24, 25 y 31 de diciembre ";" Talleres escolares y para público en general, visitas guiadas, piezas del mes, etc.  ";" Metro: Colón y Serrano (línea 4)  Bus: 1, 5, 9, 14, 19, 21, 27, 37, 45, 51, 53, 74, 150  Cercanías: Recoletos ";"";"0";"http://www.madrid.es/vgn-ext-templating/v/index.jsp?vgnextchannel=9e4c43db40317010VgnVCM100000dc0ca8c0RCRD&vgnextoid=05920d3b4c503110VgnVCM2000000c205a0aRCRD";"RECOLETOS";"PASEO";"V";"20";"";"";"";"";"MADRID";"MADRID";"28001";"RECOLETOS";"SALAMANCA";"441503";"4475142";"40.42297474261295";"-3.6908675320710223";"915 807 759 ";"915 168 928";"museo@bne.es";"/contenido/entidadesYorganismos/Museos"; 
4566286;"Museo de la Catedral de la Almudena";"";"De lunes a sábado de 10 a 14:30 horas. Cerrado los domingos, fiestas de precepto y días de actos de culto especiales";"";"Bus: 3, 148, L3";"";"0";"http://www.madrid.es/vgn-ext-templating/v/index.jsp?vgnextchannel=9e4c43db40317010VgnVCM100000dc0ca8c0RCRD&vgnextoid=82cb8d0e78d22110VgnVCM1000000b205a0aRCRD";"ALMUDENA";"PLAZA";"V";"S/N";"";"";"";"ENTRADA AL MUSEO POR UN COSTADO DE LA ENTRADA PRINCIPAL";"MADRID";"MADRID";"28013";"PALACIO";"CENTRO";"439559";"4474255";"40.41484504627648";"-3.7136975721439347";"915 592 874";"";"museoalmudena@planalfa.es";"/contenido/entidadesYorganismos/Museos"; 
2073;"Museo de la Farmacia Hispana";" Entre sus fondos destacan las colecciones de botes cerámicos, morteros y cajas de madera policromadas, relaciondos con la práctica docente, cuatro boticas históricas y tres instalaciones que recrean un laboratorio alquimista, una botica árabe y la botica del Hospital de San Juan de las Afueras (Toledo). ";" De lunes a viernes de 9 a 14 horas (periodo lectivo).  ";"";" Metro: Ciudad Universitaria  Bus: 82 , 132 , G ";"";"0";"http://www.madrid.es/vgn-ext-templating/v/index.jsp?vgnextchannel=9e4c43db40317010VgnVCM100000dc0ca8c0RCRD&vgnextoid=58f9ef4d7f71c010VgnVCM1000000b205a0aRCRD";"RAMON Y CAJAL";"PLAZA";"V";"0";"";"";"";"";"MADRID";"MADRID";"28040";"CIUDAD UNIVERSITARIA";"MONCLOA-ARAVACA";"438524";"4477559";"40.4445328804645";"-3.7262160043788155";"913 941 797";"913 941 797";"museofar@farm.ucm.es";"/contenido/entidadesYorganismos/Museos"; 
2107;"Museo de la Guardia Civil";" El Museo se crea por Orden General del Cuerpo de 23 de junio de 1982 y se inaugura el día 12 de octubre de 1982.  Los fondos que forman el Museo han sido aportados o depositados bien por entidades públicas o privadas, bien por las distintas Unidades del Cuerpo, todos los cuales están vinculados de alguna manera a las vicisitudes e historia de la Guardia Civil desde su creación hasta nuestros días. Existen cuatro salas denominadas: banderas (rellano de la 2&ordf; Planta), sala de arma, sala de uniformes y maniquies, sala de objetos varios y dioramas. ";" De lunes a viernes de 9 a 14 horas. Sábados, domingos y festivos cerrado ";"";" Metro: Guzmán el Bueno (línea 6, 7)  Bus: 2,  44, 45, Circular ";"  Visita:  previa identificación personal   Visita de grupos:  debe concertarse cita previa por escrito ";"0";"http://www.madrid.es/vgn-ext-templating/v/index.jsp?vgnextchannel=9e4c43db40317010VgnVCM100000dc0ca8c0RCRD&vgnextoid=003aef4d7f71c010VgnVCM1000000b205a0aRCRD";"GUZMAN EL BUENO";"CALLE";"V";"110";"";"";"";"";"MADRID";"MADRID";"28003";"VALLEHERMOSO";"CHAMBERI";"439705";"4477551";"40.44454745648486";"-3.7122900396933813";"915 146 000 ( Ext. 8477 / 8495 /48477)";"";"dg-estuhistoricos-registro@guardiacivil.org";"/contenido/entidadesYorganismos/Museos"; 
2114;"Museo de la Real Academia de Bellas Artes de San Fernando";"Construido inicialmente para palacio de D. Juan de Goyeneche, el edificio fue adquirido por la Academia de Bellas Artes en 1773 y reformado bajo la dirección de Fernando Chueca Goitia en 1973 y la fachada por Diego de Villanueva en 1774.";"  Colección permanente:  de martes a domingos de 10 a 15 horas., incluyendo festivos. Lunes cerrado.      Exposiciones temporales:  consultar telefónicamente  Cerrado días 1 y 6 de enero, 1 y 30 de mayo, 9 de noviembre; 24, 25 y 31 de diciembre.  ";"Sala de exposiciones - Accesible a personas con minusvalía (física).";" Metro: Sol, Sevilla  Bus: 3 , 5 , 15 , 20 , 50 , 51 , 55 , 53 , 150 ";"  Visitas guiadas (no grupos):  martes, jueves y viernes a las 11 horas, excepto Navidad, Semana Santa y agosto.   Visitas para grupos y privadas : gratuitas y guiadas a cargo de voluntarios culturales del Museo previa solicitud. Visitas de grupo:  museo.visitas@rabasf.org  - Visitas privadas a museo cerrado:  actos.culturales@rabasf.org   ";"1";"http://www.madrid.es/vgn-ext-templating/v/index.jsp?vgnextchannel=9e4c43db40317010VgnVCM100000dc0ca8c0RCRD&vgnextoid=924aef4d7f71c010VgnVCM1000000b205a0aRCRD";"ALCALA";"CALLE";"V";"13";"";"";"";"";"MADRID";"MADRID";"28014";"SOL";"CENTRO";"440667";"4474557";"40.41764548040709";"-3.700667044636178";"915 240 864 (Centralita)                            
";"915 241 034";"";"/contenido/entidadesYorganismos/MonumentosEdificiosArtisticos"; 
2095;"Museo de Mineralogía";"";"Lunes, martes, miércoles y jueves de 12:30 a 14:30 horas (conviene concertar previamente la visita) ";"Colecciones de minerales clasificados por su composición química, y vitrinas murales con ejemplares de exhibición procedentes de todo el mundo.";"Renfe: Cantoblanco Universidad";"";"0";"http://www.madrid.es/vgn-ext-templating/v/index.jsp?vgnextchannel=9e4c43db40317010VgnVCM100000dc0ca8c0RCRD&vgnextoid=255aef4d7f71c010VgnVCM1000000b205a0aRCRD";"COLMENAR VIEJO";"CARRETERA";"KM.";"19000";"4ª";"";"";"FACULT. DE CIENCIAS - U. AUTONOMA. módulo M-06";"MADRID";"MADRID";"28049";"EL GOLOSO";"FUENCARRAL-EL PARDO";"0";"0";"";"";"914 974 125";"";"museo.mineralogia@uam.es";"/contenido/entidadesYorganismos/Museos"; 
2112;"Museo de San Isidro. Los orígenes de Madrid";" Este espacio museográfico propone un viaje por la historia de la ciudad de Madrid desde la Prehistoria hasta el establecimiento de la Corte, a través de distintas salas como la de San Isidro, el Patio Renacentista, el Jardín Arqueobotánico o el Almacén Visitable.  ";"   General:  de martes a domingo y festivos de 9:30 a 20 horas   Agosto:  de martes a viernes de 9:30 a 14:30 horas y sábados, domingos y festivos de 9:30 a 20 horas   Cerrado:  todos los lunes, 1 de enero, 1 de mayo y 25 de diciembre  ";"  Sala de investigadores - Biblioteca especializada en arqueología e historia madrileña - Archivo documental - El almacén visitable (más de 600 piezas arqueológicas) y el Jardín arqueobotánico (con información documentada sobre las especies de la ciudad)  Exposición permanente: &quot;Orígenes: Un viaje al pasado de Madrid&quot;. Un recorrido a través de la evolución del territorio madrileño y de sus pobladores hasta el establecimiento de la Corte en 1561. Con proyecciones en 3D estereoscópicas que permiten a los visitantes interactuar con animales de hace 40.000 años procedentes de excavaciones madrileñas.      Otros espacios visitables: las estancias de San Isidro, así como una importante colección de iconografía de San Isidro y de Santa María de la Cabeza.   Investigadores: los fondos del Museo están a disposición de la comunidad científica y los investigadores podrán acceder a ella con una simple petición formal a la dirección.  Visitas guiadas por voluntarios culturales. Talleres didácticos para grupos escolares.  ";" Metro: Latina , Tirso de Molina  Bus: 3 , 17 , 18 , 23 , 35 , 60 , 65 , 148 ";"";"1";"http://www.madrid.es/vgn-ext-templating/v/index.jsp?vgnextchannel=9e4c43db40317010VgnVCM100000dc0ca8c0RCRD&vgnextoid=7b7aef4d7f71c010VgnVCM1000000b205a0aRCRD";"SAN ANDRES";"PLAZA";"V";"2";"";"";"";"";"MADRID";"MADRID";"28005";"PALACIO";"CENTRO";"439795";"4473945";"40.412069631779325";"-3.710874934826838";"913 667 415";"";"museosanisidro@madrid.es";"/contenido/entidadesYorganismos/Museos"; 
85301;"Museo de Sanidad e Higiene Pública";" Ubicado en las antiguas dependencias del Laboratorio de Microbiología del Hospital del Rey. 800  m2  conservados tal cual su antiguo uso, con fondos de mobiliario, instrumental y bibliografía de los antiguos hospitales para enfermos infecciosos del complejo. Se resaltan hitos históricos relevantes en salud pública mediante láminas enmarcadas.  ";" Consultar telefónicamente ";"";" Metro: Chamartín (líneas 1, 10), Plaza de Castilla (1, 9, 10)  Bus: 124, 67 , 134 , 135 , 147  Renfe: Chamartín ";" Las  visitas guiadas a grup os se realizan de lunes a viernes de 10 a 14 horas, previa cita telefónica (teléfono: 918 222 334) o a través de la dirección de correo electrónico:  museo@iscii.es  ";"0";"http://www.madrid.es/vgn-ext-templating/v/index.jsp?vgnextchannel=9e4c43db40317010VgnVCM100000dc0ca8c0RCRD&vgnextoid=3e755c2cdc41c010VgnVCM2000000c205a0aRCRD";"MONFORTE DE LEMOS";"AVENIDA";"V";"5";"";"";"";"";"MADRID";"MADRID";"28029";"LA PAZ";"FUENCARRAL-EL PARDO";"441617";"4480968";"40.47546597881768";"-3.6900603941123107";"918 222 334 / 2320     
";"";"museodesanidad@iscii.es";"/contenido/entidadesYorganismos/Museos"; 
187029;"Museo del Atlético de Madrid";" En el Museo del Atlético de Madrid &amp; Colección Pablo Ornaque se puede disfrutar de un recorrido histórico por el fútbol en general, y del Atlético de Madrid, en particular, donde los aficionados al fútbol no sólo contemplarán trofeos y objetos, sino también  un museo deportivo con piezas de gran valor museístico que alberga en sus vitrinas.   Se realizan visitas guiadas al estadio y a las instalaciones del Museo ";"   Horarios del Museo    De martes a domingo, de 11 a 19 horas.  Días de partido: desde las 11 horas hasta el inicio del encuentro.     Horarios de las visitas guiadas    De martes a domingo a las 12, 13, 16:30 y 17:30 horas  Verano (de 28 de junio al 14 de septiembre): de martes a viernes a las 12, 13, 16:30 y 17:30 horas    ";"";" Metro: Pirámides (línea 5), Marqués de Vadillo (línea 5)  Bus: 23, 34, 35, 36, 50, 116, 118, 119 ";"";"0";"http://www.madrid.es/vgn-ext-templating/v/index.jsp?vgnextchannel=9e4c43db40317010VgnVCM100000dc0ca8c0RCRD&vgnextoid=e41ad2bec675e010VgnVCM1000000b205a0aRCRD";"VIRGEN DEL PUERTO";"PASEO";"V";"67";"";"";"";"";"MADRID";"MADRID";"28005";"IMPERIAL";"ARGANZUELA";"438902";"4472770";"40.40141951261679";"-3.7212862502237236";"913 650 931 / 913 666 568 / 902 260 403";"";"";"/contenido/entidadesYorganismos/Museos"; 
2066;"Museo del Ferrocarril de Madrid";"Edificio de caracter monumental. Construido como cabecera de la línea Madrid - Extremadura - Portugal en el año 1880 por E. Cachelievre.";"  De martes a viernes de 9 a 15 horas.   Sábados de 10 a 20 horas.   Domingos de 10 a 15 horas.   Cerrado los lunes (incluidos festivos), del 16 al 31 de agosto (ambos inclusive), y los días 1 y 6 de enero, 1 de mayo y 25 de diciembre.   Con motivo de la celebración del &lsquo;Mercado de Motores&rsquo; el segundo fin de semana de cada mes de enero a junio, el horario del Museo (cuyo espacio visitable estará restringido a su Nave Central) será de 11 a 22 horas y el acceso será gratuito. ";"  Tienda  Teatro  Librería  Cafetería  Servicio Documental  Salas de Modelismo Ferroviario, de Tracción, de Infraestructura, de Relojes, Faustino GArcía Linares  Enclavamiento hidráulico de Algodor    Actividades    Mercadillo de modelismo (primeros domingos de cada mes)  Actividades para escolares  ";" Metro: Delicias (línea 3)  Bus: 8 , 19 , 45 , 47 , 59 , 85 , 86  Renfe: Delicias ";"";"1";"http://www.madrid.es/vgn-ext-templating/v/index.jsp?vgnextchannel=9e4c43db40317010VgnVCM100000dc0ca8c0RCRD&vgnextoid=091c4291ae91f010VgnVCM2000000c205a0aRCRD";"DELICIAS";"PASEO";"V";"61";"";"";"";"";"MADRID";"MADRID";"28045";"DELICIAS";"ARGANZUELA";"441233";"4472625";"40.400281290485566";"-3.693817192160563";"902 228 822                                                      
";"";"museodelicias@ffe.es";"/contenido/entidadesYorganismos/MonumentosEdificiosArtisticos"; 
2058;"Museo del Prado";" Construido inicialmente como Museo de Ciencias Naturales, este edificio neoclásico fue transformado en pinacoteca de las Colecciones Reales en 1818 con colecciones de pintura, dibujos, grabados, monedas y medallas desde el Románico hasta el siglo XIX. ";"  De lunes a sábado de 10 a 20 horas . Domingos y festivos de 10 a 19 horas    Cerrado:  1 de enero, 1 de mayo y 25 de diciembre   Horario reducido:  6 de enero, 24 y 31 de diciembre de 10 a 14 horas   Horario de taquillas: a cceso al Museo hasta 30 minutos antes del cierre (el desalojo de las salas comienza 10 minutos antes del cierre) ";"Accesible a personas con discapacidad física - Audioguías temáticas, audioguía infantil - Librería - Tienda - Cafetería - Restaurante - Guadarropa";" Metro: Atocha (línea 1), Banco de España (línea 2), Retiro (línea 2)  Bus: 9, 10, 14, 19, 27, 34, 37, 45  Renfe: Atocha ";"  Arquitecto : Juan de Villanueva (1785 - 1808)   Adecuación : Antonio López Aguado (1818 - 1831)   Ampliación : Rafael Moneo (2000 - 2007) ";"1";"http://www.madrid.es/vgn-ext-templating/v/index.jsp?vgnextchannel=9e4c43db40317010VgnVCM100000dc0ca8c0RCRD&vgnextoid=060079262ef5d010VgnVCM1000000b205a0aRCRD";"RUIZ DE ALARCON";"CALLE";"V";"23";"";"";"";"";"MADRID";"MADRID";"28014";"LOS JERONIMOS";"RETIRO";"441456";"4474099";"40.41357557281165";"-3.6913253533221817";"913 302 800";"";"";"/contenido/entidadesYorganismos/Museos"; 
2086;"Museo del Reloj Grassy";"  Arquitecto : Eladio Laredo Carranza (1916 - 1917).  Fundado por el relojero francés Grassy en 1955, este museo narra la historia de este aparato de medición. Sus fondos, colección privada, constan de más de quinientos ejemplares de diferentes nacionalidades y los más variados estilos.  ";" Jueves de 18 a 19 horas y viernes de 11 a 12 horas.  Las visitas se efectúan con cita previa llamando al  teléfono 915 321 007 . Se encuentra en la Joyería Grassy, por tanto no se admiten visitas de grupos. ";"";" Metro: Banco de España (línea 2), Sevilla (línea 2)  Bus: 1, 2, 5, 9, 15, 20, 51, 52, 53, 74, 146, 150 ";"";"0";"http://www.madrid.es/vgn-ext-templating/v/index.jsp?vgnextchannel=9e4c43db40317010VgnVCM100000dc0ca8c0RCRD&vgnextoid=daeaef4d7f71c010VgnVCM1000000b205a0aRCRD";"GRAN VIA";"CALLE";"V";"1";"";"";"";"";"MADRID";"MADRID";"28013";"CORTES";"CENTRO";"440889";"4474721";"40.41913869883697";"-3.6980657388420255";"915 321 007";"";"";"/contenido/entidadesYorganismos/Museos"; 
7685664;"Museo del Robot";" El Museo del Robot  nace con la idea de acercar de una forma directa y real el apasionante mundo de los robots de entretenimiento a cualquier tipo de público.";"  Visitas guiadas regulares  (entrada libre NO disponible):   Martes a viernes: pases a las 13, 17 y 20 horas    Visitas guiadas para grupos:    Martes, miércoles y Jueves, pases (solo mañanas) de 10:30 a 12:00 horas  ";"  Exposición permenente  Visitas guiadas  ";" Metro: San Bernardo (líneas 2, 4)  Bus: 3, 21, 147 ";"";"0";"http://www.madrid.es/vgn-ext-templating/v/index.jsp?vgnextchannel=9e4c43db40317010VgnVCM100000dc0ca8c0RCRD&vgnextoid=e0b7b8dc8f719410VgnVCM1000000b205a0aRCRD";"ALBERTO AGUILERA";"CALLE";"V";"1";"BAJA";"";"";"";"MADRID";"MADRID";"28015";"UNIVERSIDAD";"CENTRO";"440151";"4475876";"40.42949061464909";"-3.7068731815207014";"914 478 808";"";"";"/contenido/entidadesYorganismos/Museos"; 
2059;"Museo del Romanticismo";"";"  Verano (del 2 de mayo al 31 de octubre):  de martes a sábados de 9:30 a 20:30 horas. Domingos y festivos de 10 a 15 horas. Jueves de agosto se cierra a las 00 horas (Museo y Café del Jardín).   De 1 de Noviembre a 30 de Abril:  de martes a sábado, de 9:30 a 18:30 horas. Domingos y festivos, de 10 a 15 horas.   Cerrado: todos los lunes, días 1 y 6 de enero, 1 de mayo, 24, 25 y 31 de diciembre y un festivo local (15 de mayo)  La Tienda y el Café del Jardín se regirán por el mismo horario de invierno. ";"  Biblioteca   Sala de exposiciones  Salón de actos  Acceso para minusválidos   Librería  ";" Metro: Tribunal (líneas 1 y 10), Alonso Martínez (líneas 4, 5 y 10)  Bus: 3, 37, 40 y 149  Renfe: Recoletos ";"  Visitas guiadas:  todos los sábados, (excepto el 16 de abril y el 8 de octubre) a las 11 y 13 horas. Actividad gratuita y sin reserva.   Descripción monumental   Construido para casa palacio del Marqués de Montallana por el discípulo de Ventura Rodríguez, Manuel Martín Rodríguez, dentro de unas líneas clasicistas, tiene algunas leves reminiscencias del barroco, como las molduras en forma de orejeras en los balcones. Las estancias nobles se organizan en torno a dos patios cuadrados. Conserva un interesante jardín romántico.  En 1850 fue comprado por el Marqués de la Puebla de Maestre. Tras albergar la Comisaría Regia de Turismo. En 1924 se convirtió en Museo Romántico y desde entonces ha sido restaurado e intervenido en diversas ocasiones con motivo de su funcionamiento como museo.  Tras nueve años cerrado ha sido reformado y puesto a punto, en aplicación de un plan museológico consistente en su renovación, ampliando su ámbito expresivo desde lo meramente literario hasta lo histórico, político, artístico y decorativo, para dar una visión de conjunto de esta etapa de la vida española.   Muestra la ambientación de una casa romántica. Posee obras de los pintores más importantes del siglo XIX (Goya, Madrazo y otros) junto a esculturas, muebles, porcelanas, abanicos y todo tipo de complementos decorativos que nos recuerdan la forma de vida de una familia burguesa del siglo XIX ";"0";"http://www.madrid.es/vgn-ext-templating/v/index.jsp?vgnextchannel=9e4c43db40317010VgnVCM100000dc0ca8c0RCRD&vgnextoid=706cef4d7f71c010VgnVCM1000000b205a0aRCRD";"SAN MATEO";"CALLE";"V";"13";"";"";"";"";"MADRID";"MADRID";"28004";"JUSTICIA";"CENTRO";"440834";"4475467";"40.42585510296794";"-3.6987835425963063";"914 481 045 / 914 480 163";"914 456 940";"informacion.romanticismo@mecd.es";"/contenido/entidadesYorganismos/Museos"; 
6337393;"Museo del Seguro. Fundación Mapfre";" Ubicado en el edificio de FUundación MAPFRE exhibe una amplia colección de piezas relacionadas con la historia de la actividad aseguradora desde el siglo  XVIII  hasta nuestros días.  ";" De lunes a Viernes previa petición de hora.  ";"  Visitas guiadas y gratuitas para grupos  Visitas individuales gratuitas con audioguía  ";" Metro: Colón (línea 4)  Bus: 5, 14, 21, 27, 37, 45, 53, 150  Renfe: Recoletos ";"";"0";"http://www.madrid.es/vgn-ext-templating/v/index.jsp?vgnextchannel=9e4c43db40317010VgnVCM100000dc0ca8c0RCRD&vgnextoid=479b95f8c72d5310VgnVCM2000000c205a0aRCRD";"BARBARA DE BRAGANZA";"CALLE";"V";"14";"";"";"";"";"MADRID";"MADRID";"28004";"JUSTICIA";"CENTRO";"441233";"4475245";"40.42388355388781";"-3.694059645939101";"91 581 20 08 (para reservas)                                 
";"";"";"/contenido/entidadesYorganismos/Museos"; 
2115;"Museo del Traje. Centro de Investigación del Patrimonio Etnológico (CIPE)";" Edificio de carácter monumental, construido por Jaime López de Asiaín en 1969. Se caracteriza por su estructura de hormigón y su exterior de placas metálicas y triple acristalamiento. ";" De martes a sábado de 9:30 a 19 horas. Domingos y festivos de 10 a 15 horas.  Verano (julio y agosto): los jueves se amplia el horario hasta las 22:30 horas.  Cerrado: todos los lunes, 1 y 6 de enero, 1 de mayo, 9 de noviembre, 24, 25 y 31 de diciembre. ";"  Visitas comentadas para grupos:  de 15 a 25 personas (con reserva previa) durante todo el año.   Visitas guiadas a la exposición permanente   Para participar en las visitas guiadas es necesario inscribirse previamente en el  teléfono 915 504 708 (de lunes a viernes de 10 a 14 horas)  o por el email en   difusion.reservas.mt@mcu.es    ";" Metro: Moncloa (líneas 3, 6), Ciudad Universitaria (línea 6)  Bus: 46, 82, 83, 132, 133, G ";"";"1";"http://www.madrid.es/vgn-ext-templating/v/index.jsp?vgnextchannel=9e4c43db40317010VgnVCM100000dc0ca8c0RCRD&vgnextoid=053c4291ae91f010VgnVCM2000000c205a0aRCRD";"JUAN DE HERRERA";"AVENIDA";"V";"2";"";"";"";"";"MADRID";"MADRID";"28040";"CIUDAD UNIVERSITARIA";"MONCLOA-ARAVACA";"438382";"4477019";"40.439657822278555";"-3.7278378564088275";"915 504 700 (Información)";"915 446 970";"museodeltraje@mecd.es";"/contenido/entidadesYorganismos/Museos"; 
2074;"Museo Geominero";" Construcción típica de la arquitectura en hierro y cristal de principios del siglo XX que alberga colecciones de minerales, rocas y fósiles procedentes de todas las regiones españolas y de antiguos territorios coloniales, así como de yacimientos significados del registro mundial. ";" De lunes a domingo y festivos de 9 a 14 horas. Cerrado: 1 y 6 de enero y 24, 25 y 31 de diciembre ";"";" Metro: Ríos Rosas (línea 1)  Bus: 3, 12, 37, 45, 149 ";"  Visitas guiadas:  para grupos de lunes a viernes, previa petición cita   Objetivos del Museo : conservar, investigar y difundir el patrimonio geológico, paleontológico y mineralógico  ";"0";"http://www.madrid.es/vgn-ext-templating/v/index.jsp?vgnextchannel=9e4c43db40317010VgnVCM100000dc0ca8c0RCRD&vgnextoid=ff0bef4d7f71c010VgnVCM1000000b205a0aRCRD";"RIOS ROSAS";"CALLE";"V";"23";"";"";"";"";"MADRID";"MADRID";"28003";"RIOS ROSAS";"CHAMBERI";"440773";"4477266";"40.44205696051332";"-3.6996705622841457";"913 495 759";"913 495 828";"m.geominero@igme.es";"/contenido/entidadesYorganismos/Museos"; 
2075;"Museo Histórico Minero Don Felipe de Borbón y Grecia";"Ubicado en la Escuela Técnica Superior de Ingenieros de Minas";" Previa cita concertada para grupos   Mercadillo de minerales y fósiles:  primer domingo de cada mes de 10 a 14 horas (en este período se podrá visitar también el museo y la mina)   Exposición anual  el segundo fin de semana (viernes, sábado y domingo) de marzo (el Museo permanecerá abierto todo el día) ";"  Visitas guiadas   Colección de minerales, fósiles y rocas   Sección de maquetas y utensilios utilizados tradicionalmente en la minería   Visita a mina experimental (pozo, castillete, galerías y testeros)  ";" Metro: Ríos Rosas (línea 1)  Bus: 3, 12, 37, 45, 149 ";"";"0";"http://www.madrid.es/vgn-ext-templating/v/index.jsp?vgnextchannel=9e4c43db40317010VgnVCM100000dc0ca8c0RCRD&vgnextoid=822bef4d7f71c010VgnVCM1000000b205a0aRCRD";"RIOS ROSAS";"CALLE";"V";"21";"";"";"";"";"MADRID";"MADRID";"28003";"RIOS ROSAS";"CHAMBERI";"440712";"4477269";"40.44207963042673";"-3.7003900716027776";"913 367 029";"913 367 068";"";"/contenido/entidadesYorganismos/Museos"; 
6019032;"Museo Los Caños del Peral. Estación de Metro Ópera";"";" Viernes, sábados y domingos de 11 a 13 y de 17 a 19 horas ";"";"";"  Museo Los Caños del Peral   La estación de Ópera cuenta en su interior con el mayor museo arqueológico bajo tierra de Madrid, un espacio de 200 metros cuadrados donde se pueden ver restos arqueológicos de los siglos  XVI  y  XVII  pertenecientes a la Fuente de los Caños del Peral, el Acueducto de Amaniel y la Alcantarilla del Arenal.  A principios del siglo  XVI  el agua no llegaba a las casas de Madrid a pesar de ser un elemento indispensable en el desarrollo de la ciudad y realizaban el abastecimiento mediante aljibes o pilas instaladas en las plazas y junto a puertas y murallas. En la Edad Moderna, las fuentes públicas sustituyeron a los aljibes, y parte de esas fuentes es lo que encontramos hoy en Ópera.  La Fuente de los Caños del Peral contaba con seis caños y sus correspondientes pilas. El agua procedía del manantial de aguas gordas existentes en la plazuela de los Caños.  El Acueducto de Amaniel se remonta a comienzos del siglo  XVII , nacía en la actual Dehesa de la Villa y surtía agua al Palacio real.  La Alcantarilla del Arenal vino a paliar el problema de la evacuación de las aguas sucias, por eso se canalizó para que desembocara en el arroyo de Leganitos, en algún punto de la actual Cuesta de San Vicente.  Elementos hidráulicos que acercan la historia a todos los visitantes que además, tienen la posibilidad de acceder a la sala de audiovisuales para conocer la historia de los vestigios expuestos. ";"1";"http://www.madrid.es/vgn-ext-templating/v/index.jsp?vgnextchannel=9e4c43db40317010VgnVCM100000dc0ca8c0RCRD&vgnextoid=435950262d50f210VgnVCM2000000c205a0aRCRD";"ISABEL II";"PLAZA";"V";"1";"";"";"";"Estación de Ópera (líneas 2, 5 y Ramal)";"MADRID";"MADRID";"28013";"PALACIO";"CENTRO";"439943";"4474575";"40.41775560280743";"-3.709202070089538";"902 444 403 (Información)";"";"";"/contenido/entidadesYorganismos/Museos"; 
2053;"Museo Lázaro Galdiano";"";"  Lunes y de miércoles a sábados de 10 a 16,30 horas.  Domingos de 10 a 15 horas.  Cerrado todos los martes, 1 y 6 de enero, 28 y 29 de marzo, 1 y 15 de mayo, 15 de agosto, 1 de noviembre y 24, 25 y 31 de diciembre.    Visitas guiadas  al Museo fuera de horario: de 17:30 a 18:45 horas, previa reserva telefónica en el 915 616 084 (extensión 101).    Horario para reserva telefónica: de lunes a jueves, de 8,30 a 16,30 horas, viernes hasta las 14 horas.   Importe: 2 euros (entrada al museo).   Miércoles y jueves: para grupos previamente constituidos.   Viernes para visitantes individuales reunidos para la visita.   ";"";" Bus: 9, 12, 16, 19, 51, 61  ";"";"1";"http://www.madrid.es/vgn-ext-templating/v/index.jsp?vgnextchannel=9e4c43db40317010VgnVCM100000dc0ca8c0RCRD&vgnextoid=7d1aef4d7f71c010VgnVCM1000000b205a0aRCRD";"SERRANO";"CALLE";"V";"122";"";"";"";"";"MADRID";"MADRID";"28006";"CASTELLANA";"SALAMANCA";"441911";"4476668";"40.436750328725985";"-3.6861980129207894";"915 616 084";"915 617 793";"secretaria.fundacion@flg.es";"/contenido/entidadesYorganismos/MonumentosEdificiosArtisticos"; 
2103;"Museo Médico Farmaceútico";"";"De lunes a viernes de 8 a 15 horas";"";" Metro: Guzmán el Bueno (líneas 6, 7)  Bus: 44, 45, F, C ";"";"0";"http://www.madrid.es/vgn-ext-templating/v/index.jsp?vgnextchannel=9e4c43db40317010VgnVCM100000dc0ca8c0RCRD&vgnextoid=153bef4d7f71c010VgnVCM1000000b205a0aRCRD";"REINA VICTORIA";"AVENIDA";"V";"26";"";"";"";"";"MADRID";"MADRID";"28003";"CIUDAD UNIVERSITARIA";"MONCLOA-ARAVACA";"439966";"4477857";"40.44732295324816";"-3.7092415521608646";"";"";"";"/contenido/entidadesYorganismos/Museos"; 
5349304;"Museo Nacional Centro de Arte Reina Sofía (MNCARS)";"  Edificio Sabatini:  calle Santa Isabel 52.   Edificio Nouvel  (ampliación): ronda de Atocha, esquina a plaza del Emperador Carlos V.   Espacios completamentarios en el Parque de El Retiro:  Palacio de Velázquez y Palacio de Cristal ";"  De lunes a sábado de 10 a 21 horas y domingos de 10 a 19 horas (de 14:30 a 19 horas se pueden visitar la Colección 1, Edificio Sabatini planta 2,. El resto de las exposiciones temporales y la Colección, permanecen cerradas).  Martes cerrado (incluso festivos)  Cerrado los días 1 y 6 de enero, 1 de mayo, 15 de mayo, 9 de noviembre y 24, 25 y 31 de diciembre   El horario de la taquilla finaliza 30 minutos antes de la hora del cierre del museo.  ";"  Biblioteca y centro de documentación  Acceso y servicios para personas con discapacidad  Audioguías  Librería y tienda  Punto de información (domingos de 10 a 14 horas)  Cafetería y restaurante  Cajero 4B  Servicio de información  Club de talleres infantiles (información de actividades, descuentos y promociones)  Aparcamiento para biciletas, en la entrada de la plaza Nouvel, a ambos lados del Edificio Sabatini  Aparcamientos públicos de vehículos cercanos: estación ferroviaria de Atocha y plaza Sánchez Bustillo  ";" Metro: Atocha (línea 1)  Bus:  6 , 8 , 10 , 14 , 19 , 24 , 26 , 27 , 32 , 34 , 36 , 37 , 41 , 45 , 47 , 54 , 55 , 57 , 59 , 60 , 78 , 85 , 86 , 102 , 116 , 118 , 119 , 141 , 148 , 247 , E3 , Circular  Renfe: C2, C3, C4, C5, C7, C8, C10 ";"";"1";"http://www.madrid.es/vgn-ext-templating/v/index.jsp?vgnextchannel=9e4c43db40317010VgnVCM100000dc0ca8c0RCRD&vgnextoid=69d8275bad5a1210VgnVCM2000000c205a0aRCRD";"SANTA ISABEL";"CALLE";"V";"52";"";"";"";"";"MADRID";"MADRID";"28012";"EMBAJADORES";"CENTRO";"441222";"4473541";"40.40853230723727";"-3.6940315586451433";"917 741 000                                                                         
";"917 741 056";"info@museoreinasofia.es";"/contenido/entidadesYorganismos/Museos"; 
2057;"Museo Nacional de Antropología";" El Museo Nacional de Antropología ofrece al público una visión global de la cultura de diferentes pueblos y  establece las semejanzas o diferencias culturales que les unen o separan para poner de manifiesto la riqueza y diversidad de las culturas existentes a lo largo del mundo, favorece la comprensión intelectual y promueve la tolerancia hacia otros pueblos y otras culturas. El Museo está instalado en el edificio de estilo clasicista construido por el Marqués de Cubas en 1875 por encargo del Doctor González Velasco, fundador de la institución. ";"  De martes a sábado de 9:30 a 20 horas, domingos y festivos de 10 a 15 horas.  Cerrado: todos los lunes; 1 de enero; 1 de mayo;  24, 25 y 31 de diciembre y dos festivos locales.  ";" Biblioteca (especialización en antropología, servicio de préstamo interbibliotecario y reprografía) - Guardarropa - Servicio de voluntarios - Visitas guiadas de grupos, previa petición.  La biblioteca está cerrada temporalmente por obras. ";" Metro: Atocha  Bus: 6, 7,10, 14, 19, 24, 26, 27, 32, 34, 37, 45, 85, 150, C  Renfe: Atocha ";"";"1";"http://www.madrid.es/vgn-ext-templating/v/index.jsp?vgnextchannel=9e4c43db40317010VgnVCM100000dc0ca8c0RCRD&vgnextoid=456079262ef5d010VgnVCM1000000b205a0aRCRD";"ALFONSO XII";"CALLE";"V";"68";"";"";"";"";"MADRID";"MADRID";"28014";"LOS JERONIMOS";"RETIRO";"441659";"4473466";"40.40788746746481";"-3.6888747083604834";"915 306 418                                                                                                
";"914 677 098";"antropologico@mcu.es";"/contenido/entidadesYorganismos/Museos"; 
2055;"Museo Nacional de Artes Decorativas";" Inaugurado en 1912, su sede es un típico palacete madrileño del último tercio del siglo XIX. El museo posee muebles, cerámicas, vidrios, joyas, tejidos, arte oriental, y hasta 30.000 objetos distintos que a lo largo de la historia han servido para embellecer las casas, palacios y los monumentos de distintas culturas.  El museo posee muestras como el Jarrón de Sevres regalo de Napoleón III, la Cocina Valenciana del siglo XVIII compuesta por más de 1.500 azulejos de Manises, la Mesa de plata del siglo XVI o la colección de alfombras españolas de los siglos XV al XVII. ";"  De martes a sábados de 9:30 a 15 horas.   Jueves tarde de 17 a 20 horas.  Cerrado los jueves de julio y agosto.  Domingos y festivos de 10 a 15 horas.   Cerrado: todos los lunes del año, y los días 1 y 6 de enero, 1 y 15 de mayo, 24, 25 y 31 de diciembre.  ";"  Exposición de piezas españolas y de procedencia extranjera.     Visitas guiadas a la colección permanente.   Los guías voluntarios del Museo Nacional de Artes Decorativas ofrecen visitas gratuitas a la colección permanente los domingos a las 11:30 horas para todos los visitantes y de martes a viernes a grupos (previa petición de hora en el 915 326 499 -  Ext.  101).   Visitas guiadas individuales  los domingos a las 11:30 horas    Información y reservas para grupos:  915 326 499.  Ext.  101 (En caso de cancelación de la visita, se ruega avisar telefónicamente) ";" Metro: Banco de España (línea 2) , Retiro (línea 2)  Bus: 1, 2, 5, 9, 10, 14, 15, 16, 19, 20, 27, 28, 34, 37, 45, 51, 52, 53, 74, 146, 148, 150  Cercanías: Recoletos ";"";"0";"http://www.madrid.es/vgn-ext-templating/v/index.jsp?vgnextchannel=9e4c43db40317010VgnVCM100000dc0ca8c0RCRD&vgnextoid=287079262ef5d010VgnVCM1000000b205a0aRCRD";"MONTALBAN";"CALLE";"V";"12";"";"";"";"";"MADRID";"MADRID";"28014";"LOS JERONIMOS";"RETIRO";"441590";"4474576";"40.4178910680573";"-3.689790044810553";"915 326 499 / 915 326 845";"915 232 086";"mnad@mnad.mcu.es";"/contenido/entidadesYorganismos/MonumentosEdificiosArtisticos"; 
2083;"Museo Nacional de Ciencia y Tecnología";" Situado en la antigua estación de Delicias. El contenido de la colección se basa en instrumentos científicos, máquinas industriales, aparatos de sonido e imagen.  Exposiciones permanentes: Tiempos precisos, de relojes y Vivir más y mejor: nuestra meta ";" De martes a sábado de 10 a 14 y de 16 a 18 horas. Domingo y festivos de 10 a 14:30 horas.  Verano (julio y agosto): de martes a sábado de 9 a 15 horas; domingos y festivos de 10 a 14:30 horas.   Cerrado: lunes, días 1 y 6 de enero, 1 y 15 de mayo y  24, 25 y 31 de diciembre  ";"";" Metro: Delicias (línea 3)  Bus: 8 , 19 , 45 , 47 , 59 , 85 , 86 ";"";"1";"http://www.madrid.es/vgn-ext-templating/v/index.jsp?vgnextchannel=9e4c43db40317010VgnVCM100000dc0ca8c0RCRD&vgnextoid=fbcbef4d7f71c010VgnVCM1000000b205a0aRCRD";"DELICIAS";"PASEO";"V";"61";"";"";"";"";"MADRID";"MADRID";"28045";"DELICIAS";"ARGANZUELA";"441233";"4472625";"40.400281290485566";"-3.693817192160563";"916 037 400 / 916 037 401 (exposiciones) / 916 037 405  (visitas guiadas)";"";"infomuseo@muncyt.es";"/contenido/entidadesYorganismos/Museos"; 
2056;"Museo Nacional de Ciencias Naturales";"Construido por Fernando de la Torriente en 1881 con hierro y cristal. De estructura muy similar a los pabellones con destino a exposiciones construídos en la época. Sus jardines albergan un estanque, el monumento a Isabel la Católica y el monumento a la Constitución de 1978.";" De martes a viernes, domingos, festivos y lunes festivos de 10 a 17 horas. Sábados, domingos previos a festivos de 10 a 20 horas. Sábados de julio y agosto de 10 a 15 horas.   Cerrado : todos los lunes no festivos, 1 y 6 de enero, 1 de mayo y 25 de diciembre   Biblioteca : de lunes a jueves de 9 a 20 y viernes de 9 a 15 horas. Julio y agosto: de lunes a viernes de 9 a 14,30 horas    Mediateca  (cerrada por obras). ";" Biblioteca de Zoología, Entomología, Econología, Evolución, Geología y Paleontología (consulta en sala, información y referencia, reprografía, préstamo personal e interbibliotecario), Archivo, publicaciones, consulta y asesoramiento científico y técnico, exposiciones permanentes y temporales, actividades culturales, talleres, cursos, Sala de proyecciones. Librería especializada. ";" Metro: Gregorio Marañón (líneas 7, 10)  Bus: 7, 12, 14, 27, 40, 45, 147, 150 ";"  Exposiciones permanentes     Minerales, fósiles y evolución humana:  fósiles, meteoritos, minerales, rocas y la evolución humana    Mediterráneo, naturaleza y civilización:  la fauna más destacada del área mediterránea española y los ecosistemas que dan forma a sus paisajes.   El Real Gabinete de Historia Natural:  piezas emblemáticas del antiguo Real Gabinete de 1771 y otras de gran valor histórico.   El Jardín educativo del monte mediterráneo:  bajo este nombre están representados ambientes botánicos con especies propias de esta región, que tienen un bajo requerimiento hídrico y que muchas de ellas están presentes en la Comunidad de Madrid.   El almacén de aves y mamíferos:  custodia las más importantes colecciones zoológicas y geológicas de España con más de 8 millones de ejemplares.   Jardín de piedras:  conjunto al aire libre de rocas y troncos fosilizados.   Esqueleto de ballena roncual : cedido por el gobierno andaluz, con más de 20 metros y 1.500 kilos. La ballena quedó varada en 2008 en la playa de Cortijo Blanco, en Marbella,     Talleres y visitas especiales para discapacitados visuales e intelectuales,   para grupos:  concertar en los teléfonos 915 646 169 y 914 111 328 ext.  1165 ( de lunes a viernes de 10 a 14 horas) ";"1";"http://www.madrid.es/vgn-ext-templating/v/index.jsp?vgnextchannel=9e4c43db40317010VgnVCM100000dc0ca8c0RCRD&vgnextoid=8edbef4d7f71c010VgnVCM1000000b205a0aRCRD";"JOSE GUTIERREZ ABASCAL";"CALLE";"V";"2";"";"";"";"";"MADRID";"MADRID";"28006";"EL VISO";"CHAMARTIN";"441578";"4477079";"40.44042943656617";"-3.690161856630636";"914 111 328 (centralita)";"915 645 078";"museo@bib.csic.es";"/contenido/entidadesYorganismos/MonumentosEdificiosArtisticos"; 
2076;"Museo Naval";" Temática: historia de la navegación española  ";"De martes a domingo de 10 a 19 horas. Cerrado: lunes,  días 1 y 6 de enero, viernes santo, 1 de mayo, día 16 de julio, y días 24, 25 y 31 de diciembre";"";" Metro: Banco de España (línea 2)  Bus: 9, 10, 14, 27, 34, 37, 45 ";"";"1";"http://www.madrid.es/vgn-ext-templating/v/index.jsp?vgnextchannel=9e4c43db40317010VgnVCM100000dc0ca8c0RCRD&vgnextoid=a30cef4d7f71c010VgnVCM1000000b205a0aRCRD";"PRADO";"PASEO";"V";"5";"";"";"";"";"MADRID";"MADRID";"28014";"LOS JERONIMOS";"RETIRO";"441337";"4474537";"40.41751289873052";"-3.692768317427539";"915 238 516 (Cita previa visitas grupo)";"913 795 056";"";"/contenido/entidadesYorganismos/Museos"; 
2085;"Museo Postal y Telegráfico";" Recorrido temático y cronológico por la evolución de los medios de comunicación y colecciones filatélicas de gran valor histórico, temáticas y por países. ";"  Museo: de lunes a viernes de 9 a 14 y de 16 a 18 horas.   Biblioteca: de lunes a viernes de 9 a 14 horas.  ";"";"Bus: 161";"  Visitas guiadas:  previa petición de hora, para grupos o coleccionistas e investigadores. Mediante la proyección de videos y a través de la visita, se puede conocer la historia del correo y del telégrafo desde los orígenes hasta las nuevas tecnologías.  ";"1";"http://www.madrid.es/vgn-ext-templating/v/index.jsp?vgnextchannel=9e4c43db40317010VgnVCM100000dc0ca8c0RCRD&vgnextoid=c82cef4d7f71c010VgnVCM1000000b205a0aRCRD";"TAPIA DE CASARIEGO";"CALLE";"V";"6";"";"";"";"";"MADRID";"MADRID";"28023";"VALDEMARIN";"MONCLOA-ARAVACA";"434912";"4480162";"40.467706026917405";"-3.7690721403206724";"917 400 668 / 917 400 664 (Biblioteca)";"917 401 436";"museopostaltelegrafico@correos.com";"/contenido/entidadesYorganismos/MonumentosEdificiosArtisticos"; 
4997114;"Museo Sorolla";"";" De martes a sábado: de 9:30 a 20 horas ininterrumpido   Domingo y festivos: de 10 a 15 horas  Cerrado: todos los lunes del año, 1 de enero, 1 de mayo, 24, 25 y 31 de diciembre, y dos festivos locales. ";"Autoguías, biblioteca y archivo ";" Metro: Iglesia (línea 1), Rubén Darío (línea 5), Gregorio Marañón (líneas 7, 10)  Bus: 5, 7, 14, 16, 27, 40, 45, 61, 147 y 150  ";"";"0";"http://www.madrid.es/vgn-ext-templating/v/index.jsp?vgnextchannel=9e4c43db40317010VgnVCM100000dc0ca8c0RCRD&vgnextoid=6dd05e93aad9c110VgnVCM1000000b205a0aRCRD";"GENERAL MARTINEZ CAMPOS";"PASEO";"V";"37";"";"";"";"";"MADRID";"MADRID";"28010";"ALMAGRO";"CHAMBERI";"441382";"4476506";"40.43525376916864";"-3.69241981045026";"913 101 584";"913 085 925";"museo@msorolla.mcu.es";"/contenido/entidadesYorganismos/Museos"; 
2077;"Museo Taurino de la Plaza de las Ventas";" Su existencia data del día de San Isidro de 1951, creado por la extinta Diputación Provincial de Madrid. Sirve como testimonio de los momentos estelares del arte y la historia del toreo  ";"  Temporada taurina  (de marzo a octubre): de lunes a viernes de 9:30 a 14:30 horas. Domingos, festivos y días de festejo de 10 a 13 horas   Fuera de temporada  (de noviembre a febrero): de lunes a viernes de 9:30 a 14:30 horas ";"";" Metro: Ventas (líneas 2, 5)  Bus: 12, 21, 38, 53, 106, 110, 146 ";"";"0";"http://www.madrid.es/vgn-ext-templating/v/index.jsp?vgnextchannel=9e4c43db40317010VgnVCM100000dc0ca8c0RCRD&vgnextoid=958cef4d7f71c010VgnVCM1000000b205a0aRCRD";"ALCALA";"CALLE";"V";"237";"";"";"";"";"MADRID";"MADRID";"28028";"GUINDALERA";"SALAMANCA";"443885";"4476078";"40.43157110306013";"-3.662872780933851";"917 251 857                 
";"";"";"/contenido/entidadesYorganismos/Museos"; 
2099;"Museo Thyssen Bornemisza";"   Arquitecto:  Antonio López Aguado (1805 - 1806)   Adecuación : Rafael Moneo (1989 - 1992)    Ampliación : BOPBAA (1999 - 2004)   El Palacio donde se ubica la colección fue el antiguo palacio del duque de Villahermosa. Edificación neoclásica. Posteriormente se transforma y adapta como entidad bancaria perdiento sus espacios interiores. Años más tarde, pasó a formar parte de los edificios del Museo del Prado. Desde principios de los 90 alberga la Colección Thyssen. El museo ofrece un recorrido por la historia de la pintura europea desde sus inicios en el siglo XIII, hasta finales del siglo XX.  ";"";"  Accesible a personas con discapacidad (física y sensorial)   Folleto y señalización en braille para invidentes  Librería  Tienda  Cafetería  Restaurante  Guardarropa  Servicio de venta anticipada en las taquillas  Servicio de Audio Guía  ";" Metro: Banco de España (línea 2)  Bus: 1, 2,  5, 9, 10, 14, 15, 20, 27, 34, 37, 45, 51, 52, 53, 74, 146, 150  Renfe: Recoletos ";"   Horario     Colección permanente : de martes a domingo de 10 a 19 y sábados hasta las 21 horas (exposiciones temporales). El desalojo de las Salas de Exposición tendrá lugar cinco minutos antes del cierre  El Museo cierra los días 1 de enero, 1 de mayo y el 25 de diciembre  Apertura gratuita todos los lunes del año, entre las 12 y las 16 horas    Horario de apertura durante el verano de 2014     Exposiciones temporales:  de 10 de junio a 14 de septiembre, las exposiciones temporales estarán abiertas de 10 a 22 horas (de martes a sábado) y de 10 a 19 horas (lunes y domingos). Último acceso una hora antes del cierre   Cafetería - restaurante:  permanecerá abierta de 10 a 22 horas (de martes a sábado) y de 10 a 19 horas (lunes y domingos)   Terrazas del Thyssen:  de 10 a 1 de la madrugada (de martes a sábado) y de 10 a 19 horas (lunes y domingos)   Restaurante El Mirador del Museo:  únicamente abierto para cenas (de martes a sábado), desde las 20:20 horas hasta la 1 de la madrugada  ";"1";"http://www.madrid.es/vgn-ext-templating/v/index.jsp?vgnextchannel=9e4c43db40317010VgnVCM100000dc0ca8c0RCRD&vgnextoid=0b8079262ef5d010VgnVCM1000000b205a0aRCRD";"PRADO";"PASEO";"V";"8";"";"";"";"";"MADRID";"MADRID";"28014";"CORTES";"CENTRO";"441168";"4474371";"40.41600553697803";"-3.694744831131079";"902 760 511 (Información general)                                                                                                                         
";"914 202 780";"inform@museothyssen.org";"/contenido/entidadesYorganismos/MonumentosEdificiosArtisticos"; 
2101;"Museo Tiflológico";"Edificio con una superficie de 1.500  m2  dividido en tres zonas con maquetas de monumentos nacionales e internacionales realizadas por ciegos e instrumentos utilizados por los invidentes desde hace 200 años. Es un espacio concebido para que sus visitantes puedan ver y tocar las piezas expuestas.";" Martes a viernes de 10 a 14 horas y de 17 a 20 horas. Sábados de 10 a 14 horas. Lunes, domingos y festivos cerrado.  Las visitas de grupos se realizan previa reserva, de 8 a 15 horas, en el teléfono de información:+34 915 894 219 ";"Apropiado para niños a partir de 8 años";" Metro: Estrecho  Bus: 3, 42, 64, 66, 124, 127 ";"";"1";"http://www.madrid.es/vgn-ext-templating/v/index.jsp?vgnextchannel=9e4c43db40317010VgnVCM100000dc0ca8c0RCRD&vgnextoid=baacef4d7f71c010VgnVCM1000000b205a0aRCRD";"LA CORUÑA";"CALLE";"V";"18";"";"";"";"";"MADRID";"MADRID";"28020";"CUATRO CAMINOS";"TETUAN";"440740";"4478725";"40.45519790204094";"-3.7001960485997545";"915 894 290";"915 894 225";"museo@once.es";"/contenido/entidadesYorganismos/Museos"; 
2063;"Palacio de Liria";" Construído por Ventura Rodríguez entre 1762 y 1780 para el tercer Duque de Berwick y de Liria. De estilo barroco clásico. Destaca su fachada con columnas jónicas y pilastras que descansan sobre un basamento almohadillado.  ";" Viernes: visita guiada a las 10 horas, 11 horas y 12 horas.  Visitas: previa petición de cita por escrito o por fax ";"";" Metro: Ventura Rodríguez (línea 3)  Bus: 1, 2, 44, 74, 133, C ";"";"0";"http://www.madrid.es/vgn-ext-templating/v/index.jsp?vgnextchannel=9e4c43db40317010VgnVCM100000dc0ca8c0RCRD&vgnextoid=22bdef4d7f71c010VgnVCM1000000b205a0aRCRD";"PRINCESA";"CALLE";"V";"20";"";"";"";"";"MADRID";"MADRID";"28008";"UNIVERSIDAD";"CENTRO";"439663";"4475582";"40.42680681645222";"-3.7125979731032404";"91 547 53 02";"91 541 03 77";"";"/contenido/entidadesYorganismos/MonumentosEdificiosArtisticos"; 
2062;"Palacio Real";" Construido sobre el solar del antiguo Alcázar tras un incendio en 1734. Proyectado por Juvara en 1735 y construido por Sachet de 1738 a 1764 bajo las influencias del clasicismo barroco. A partir de 1770, Sabatini añadió el ala sudeste y realizó la gran escalera. Es de destacar el gran patio que articula el edificio y la fachada principal que aloja el balcón y Escudo Real.  Dentro se encuentra el Museo Real Oficina de Farmacia (cerrado por obras de remodelación). ";"  De octubre a marzo: de 10 a 18 horas.  De abril a septiembre: de 10 a 20 horas.  Cierre taquillas una hora antes.  Cerrado: 1 y 6 (acto oficial) de enero; 1 de mayo; 25 de diciembre de 2014.   Abierto: 17 y 18 de abril; 2 y 15 de mayo; 19 de junio; 15 de agosto; 1 y 10 de noviembre; 6, 8, 24 y 31 de diciembre de 2014: taquillas cerradas a las 14 y monumento a la 15 horas.   ";" Librería. Exposición permanente Cuarteto Real (colección de cinco stradivarius). Visita incluida en el precio de la entrada. Más información: teléfono 91 542 00 59. Accesible a personas con minusvalía (física).   Iluminación del Palacio : todos los días, del atardecer hasta las 2 de la madrugada   Cambio de guardia : primer miércoles de cada mes (si la climatología lo permite) a las 12 horas, en la Plaza de la Armería. Además se producirá un cambio de guardia reducido el resto de miércoles del mes a las 12 horas, en la Puerta del Príncipe (Plaza de Oriente). Sin relevo: en julio, agosto y septiembre. ";" Metro: Ópera (líneas 2, 5 y Ramal Opera Norte)  Bus: 3, 25, 39, 148 ";"";"1";"http://www.madrid.es/vgn-ext-templating/v/index.jsp?vgnextchannel=9e4c43db40317010VgnVCM100000dc0ca8c0RCRD&vgnextoid=47ddef4d7f71c010VgnVCM1000000b205a0aRCRD";"BAILEN";"CALLE";"V";"0";"";"";"";"";"MADRID";"MADRID";"28013";"PALACIO";"CENTRO";"439649";"4474910";"40.42075212551193";"-3.712699107286406";"914 548 800 (Información general, actos e incidencias previstas)                                                              
914 548 803 (Concierto de colegios, reserva grupos de lunes a jueves de 9 a 18 y viernes de 9 a 16 horas)   
";"915 426 947";"info@patrimonionacional.es";"/contenido/entidadesYorganismos/MonumentosEdificiosArtisticos"; 
2079;"Panteón de Hombres Ilustres";" La construcción de este edificio responde a dos de las constantes de fines de siglo: la arquitectura historicista y la escultura funeraria. En él reposan trece personajes ilustres de la historia política y militar española.   Atención telefónica:    De lunes a sábado: de 9:30 a 17 horas  Domingos y festivos: de 9 a 14 horas  ";"  De martes a sábado de 10 a 14 y de 16 a 18,30 horas.  Domingos y festivos de 10 a 15 horas. Tardes cerrado.  Cerrado: 1 y 6 de enero; 1 de mayo; 25 de diciembre de 2014.   Abierto: 15 de mayo; 10 de noviembre y 8, 24 y 31 de diciembre de 2014: los días 24 y 31 de diciembre cerradas taquillas a las 14:30 y monumento a las 15 horas.  Abierto horario domingo: 17 y 18 de abril; 2 de mayo; 19 de junio; 15 de agosto; 1 de noviembre y 6 de diciembre de 2014.  Cierre del acceso al monumento media hora antes.  ";"";" Metro: Atocha  Bus: 10, 14, 24, 32, 37, 54, 57, 141  Renfe: Atocha ";" Entrada libre ";"1";"http://www.madrid.es/vgn-ext-templating/v/index.jsp?vgnextchannel=9e4c43db40317010VgnVCM100000dc0ca8c0RCRD&vgnextoid=361cef4d7f71c010VgnVCM1000000b205a0aRCRD";"JULIAN GAYARRE";"CALLE";"V";"3";"";"";"";"";"MADRID";"MADRID";"28014";"PACIFICO";"RETIRO";"442121";"4473278";"40.40622617519116";"-3.683413041846525";"914 548 800 ";"915 426 947";"";"/contenido/entidadesYorganismos/MonumentosEdificiosArtisticos"; 
3362;"Parroquia Santa Cruz";"";"";"";" Metro: Sol , Tirso de Molina  Bus: 6 , 17 , 18 , 23 , 26 , 31 , 32 , 35 , 50 , 65 ";"";"0";"http://www.madrid.es/vgn-ext-templating/v/index.jsp?vgnextchannel=9e4c43db40317010VgnVCM100000dc0ca8c0RCRD&vgnextoid=40e0b069a541f010VgnVCM1000000b205a0aRCRD";"ATOCHA";"CALLE";"V";"6";"";"";"";"";"MADRID";"MADRID";"28012";"SOL";"CENTRO";"440278";"4474221";"40.414599766147546";"-3.705220430502387";"913 691 239";"";"";"/contenido/entidadesYorganismos/MonumentosEdificiosArtisticos"; 
2213;"Planetario de Madrid";" Inaugurado el 29 de septiembre de 1986.  Los programas que se ofrecen en el Planetario se renuevan periódicamente con una duración aproximada de 45 minutos. Existen dos programaciones diferentes, una durante el verano y época de vacaciones escolares y otra durante el curso escolar. ";"";"  2 Salas de exposiciones  Sala de astrónomos  Sala de vídeo  Sala de proyección  Sala de retroproyección  Dotación de ordenadores personales con programas de divulgación y consultas astronómicas  Tienda especializada  Venta de catálogos de exposiciones del Planetario  ";" Metro: Méndez Álvaro (línea 6),   Bus: 148, 156 ";"  Horario de e  xposiciones    Del 18 de enero al 10 de abril de 2014   De martes a viernes (días lectivos) de 17 a 19:45 horas.  Sábados y domingos de 11 a 13:45 y de 17 a 20:45 horas.    Semana Santa de 2014   11, 15 y 16 de abril de 9:30 a 13:45 y de 17 a 20:45 hora.  12, 13, 17, 18, 19 y 20 de abril de 11 a 13:45 y de 17 a 19:45 horas.    Del 22 de abril al 20 de junio de 2014   De martes a viernes (días lectivos): de 17 a 19:45 horas.  Sábados, domingos y festivos de 11 a 13:45 y de 17 a 20:45 horas.    Del 21 de junio al 21 de septiembre   De martes a viernes: 9:30 a 13:45 y de 17 a 19:45 horas  Sábados, domingos y festivos de 11 a 13:45 y de 17 a 20:45 horas.      Días de cierre    Todos los lunes del año.  Del 6 al 17 de enero por revisión técnica anual.  ";"0";"http://www.madrid.es/vgn-ext-templating/v/index.jsp?vgnextchannel=9e4c43db40317010VgnVCM100000dc0ca8c0RCRD&vgnextoid=c9c5b069a541f010VgnVCM1000000b205a0aRCRD";"PLANETARIO";"AVENIDA";"V";"16";"";"";"";"";"MADRID";"MADRID";"28045";"LEGAZPI";"ARGANZUELA";"441977";"4471730";"40.39227092120195";"-3.684968648157021";"914 673 461 (Reserva Grupos)                                                                                                     
914 673 898 (Contestador automático de información)";"";"buzon@planetmad.es";"/contenido/entidadesYorganismos/Planetarios"; 
3359;"Real Basílica San Francisco el Grande";" Conjunto conventual que sustituyó al monasterio franciscano medieval, construido por Francisco de las Cabezas entre 1761 y 1768, que fue relevado por Antonio Polo y que concluye Francisco Sabatini en 1784 donde se exponen colecciones de pinturas de los siglos XVII al XIX. ";"  Museo:  de martes a viernes de 10:30 a 12:30 y de 16 a 18 horas. Sábados de 10:30 a 12:30 y de 16 a 18 horas (si no se ofician actos religiosos). Julio y agosto: de martes a domingo de 10:30 a 12:30 y de 17 a 19 horas. ";"";" Metro: La Latina (línea 5) , Puerta de Toledo (línea 5)  Bus:  3, 17, 18, 23, 31, 35, 36, 41, 50, 60, 65, 148, 749, C1, C2 ";"";"0";"http://www.madrid.es/vgn-ext-templating/v/index.jsp?vgnextchannel=9e4c43db40317010VgnVCM100000dc0ca8c0RCRD&vgnextoid=ef8d0713fb71c010VgnVCM1000000b205a0aRCRD";"SAN BUENAVENTURA";"CALLE";"V";"1";"";"";"";"";"MADRID";"MADRID";"28005";"PALACIO";"CENTRO";"439487";"4473811";"40.41084005024222";"-3.714503845728281";"913 653 800";"";"";"/contenido/entidadesYorganismos/MonumentosEdificiosArtisticos"; 
2087;"Real Fábrica de Tapices";"";" De lunes a viernes de 10 a 14 horas.   Cerrado: sábados, domingos, Semana Santa y agosto. ";"Salones para eventos";" Metro: Menéndez Pelayo (línea 1)  Bus: 10, 14, 26, 32, C ";"";"0";"http://www.madrid.es/vgn-ext-templating/v/index.jsp?vgnextchannel=9e4c43db40317010VgnVCM100000dc0ca8c0RCRD&vgnextoid=53cbff632081c010VgnVCM1000000b205a0aRCRD";"FUENTERRABIA";"CALLE";"V";"2";"";"";"";"";"MADRID";"MADRID";"28014";"PACIFICO";"RETIRO";"442197";"4473262";"40.406087329011655";"-3.682515969574079";"914 340 550";"915 513 409";"info@realfabricadetapices.com";"/contenido/entidadesYorganismos/MonumentosEdificiosArtisticos"; 
3349;"Real Monasterio de la Encarnación";" Edificio construído por Juan Gómez de Mora de 1611 a 1616 como monasterio anejo al Alcázar Real, modelo de lo que se ha dado en llamar barroco madrileño. Cuenta con la reliquia de San Pantaleón. ";"  De martes a sábado: de 10 a 14 horas y de 16 a 18:30 horas  Domingos y festivos: de 10 a 15 horas y tardes cerrado  Cierre taquillas, 45 minutos antes  Cerrado: 1 y 6 de enero; Semana Santa (de 16 al 19 de abril, inclusive); 1 de mayo; 27 de julio; 10 de noviembre; 24, 25 y 31 de diciembre de 2014  Abierto: 15 de mayo y 8 de diciembre de 2014  Abierto horario domingo: 2 de mayo; 19 de junio; 15 de agosto; 1 de noviembre y 6 de diciembre de 2014    Atención telefónica    De lunes a sábados: de 9:30 a 17 horas  Domingos y festivos: de 9 a 14 horas  ";"  Biblioteca  Publicaciones  Tienda  Librería  Visitas guiadas  ";" Metro:  Ópera (líneas 2, 5 y Ramal Ópera Príncipe Pío), Plaza de España (línea 3)  Bus:  1, 2, 3, 25, 39, 44, 46, 74, 75, 133 , 138, 147, 148, 202 , 749, C1, C2 ";"";"1";"http://www.madrid.es/vgn-ext-templating/v/index.jsp?vgnextchannel=9e4c43db40317010VgnVCM100000dc0ca8c0RCRD&vgnextoid=72ad0713fb71c010VgnVCM1000000b205a0aRCRD";"ENCARNACION";"PLAZA";"V";"1";"";"";"";"";"MADRID";"MADRID";"28013";"PALACIO";"CENTRO";"439744";"4474790";"40.41967800877382";"-3.711567962866152";"914 548 800 ";"915 426 947";"";"/contenido/entidadesYorganismos/MonumentosEdificiosArtisticos"; 
4707297;"Real Monasterio de Santa Isabel";" El Real Monasterio de Santa Isabel está situado en Madrid, dentro de la ciudad histórica, en una gran manzana, próxima a Atocha.  Santa Isabel agrupa dos fundaciones, un colegio de niñas, establecido por Felipe II, y un convento de clausura de monjas agustinas recoletas, fundado por la esposa de Felipe III, doña Margarita de Austria.   La arquitectura de la iglesia se debe a Gómez de Mora, de mediados del siglo XVIII. En la clausura se conservan numerosas obras pictóricas de los siglos XVII y XVIII. ";" El acceso al templo sólo es posible en horario de culto ";"";"";"";"0";"http://www.madrid.es/vgn-ext-templating/v/index.jsp?vgnextchannel=9e4c43db40317010VgnVCM100000dc0ca8c0RCRD&vgnextoid=545b544a249c6110VgnVCM1000000b205a0aRCRD";"SANTA ISABEL";"CALLE";"V";"48";"";"";"";"";"MADRID";"MADRID";"28012";"EMBAJADORES";"CENTRO";"440765";"4473944";"40.41213027498252";"-3.6994547941964946";"";"";"";"/contenido/entidadesYorganismos/MonumentosEdificiosArtisticos"; 
2061;"Real Sitio de El Pardo";" Recinto en el que se conserva el Palacio, construido sobre el castillo del siglo XV, la Casita del Príncipe, del siglo XVIII y la Quinta del Duque de Arco (Palacete que fue Casa de Labor y sus tierras). Desde 1983 ha sido adecuado para residencia de Jefes de Estado extranjeros en visita oficial. ";"  De octubre a marzo: todos los días de 10 a 18 horas  De abril a septiembre: todos los días de 10 a 20 horas  Cerrado: 1, 6 de enero; 1 de mayo; 24, 25 y 31 de diciembre de 2014.   Abierto: 17 y 18 de abril; 2 y 15 de mayo; 19 de junio; 15 de agosto; 1 y 10 de noviembre; 6 y 8 de diciembre de 2014.   ";"";"Bus: 601 (Madrid - Colonia Mingorrubio)";"El palacio dispone de helipuerto civil";"1";"http://www.madrid.es/vgn-ext-templating/v/index.jsp?vgnextchannel=9e4c43db40317010VgnVCM100000dc0ca8c0RCRD&vgnextoid=9f9def4d7f71c010VgnVCM1000000b205a0aRCRD";"MANUEL ALONSO";"CALLE";"V";"S/N";"";"";"";"";"MADRID";"MADRID";"28048";"EL PARDO";"FUENCARRAL-EL PARDO";"434323";"4486052";"40.52071790499227";"-3.776630886241239";"913 761 500 (Información y concierto de visitas, de lunes a viernes de 10:30 a 17 horas)";"913 761 287 / 913 760 452";"";"/contenido/entidadesYorganismos/MonumentosEdificiosArtisticos"; 
20605;"Templo de Debod";" Templo egipcio dedicado a Amón de Debod y a Isis, construido entre 185  a. de C.  y el siglo  I  de la Era. Fue donado por Egipto a España en 1968, en agradecimiento por la ayuda en el salvamento de los templos de Abu Simbel. ";"  De 1 de octubre a 31 de marzo   De martes a viernes de 9:45 a 13:45 y de 16:15 a 18:15 horas  Sábados, domingos y festivos de 9:30 a 20 hora    De 1 de abril a 30 de septiembre   De martes a viernes de 10 a 14 y de 18 a 20 horas  Sábados, domingos y festivos de 9:30 a 20 horas.     El templo permanece cerrado los lunes y los festivos 1 de enero, 1 de mayo y 25 de diciembre.  Último pase de visita 15 minutos antes del cierre.  Este horario y la apertura de salas pueden sufrir modificaciones, por favor, confírmelo en el teléfono de información del museo.  ";"  No cuenta con accesos adaptados para minusválidos   Exposición permanente : Debod un templo ptolemaico  Actividades didácticas: talleres para grupos escolares, talleres de profesores, visitas guiadas, talleres para familias.  Se pueden realizar fotografías o grabaciones de vídeo libremente en el exterior o en el interior del templo, siempre y cuando no se utilicen flash o trípode y su fin no sea comercial.  ";"  Metro:  Plaza de España (líneas 3 y 10) y Ventura Rodríguez (línea 3)   Autobús    Línea 74 (paradas en la calle Ferraz, frente al Templo, y en la calle Pintor Rosales)  Líneas 25, 39, 46, 75, 138 y C1 (parada en Cuesta de San Vicente-Cadarso)  Líneas 3, 44, 133, 148 y C2 (parada en Plaza de España)  Líneas 1, 2, 74 (parada en Princesa-Ventura Rodríguez)    Renfe:  Príncipe Pío   Bus turístico:  Ruta 1. PARADA 10 - Templo de Debod   Otras formas de acceso:    Aparcamiento de bicicletas: Calle Ferraz, junto al acceso principal a los jardines del Templo.  Aparcamiento de coches: dentro del Área de Estacionamiento Regulado de la ciudad de Madrid.  El aparcamiento público más cercano está situado en Plaza de España.  ";"";"0";"http://www.madrid.es/vgn-ext-templating/v/index.jsp?vgnextchannel=9e4c43db40317010VgnVCM100000dc0ca8c0RCRD&vgnextoid=13b432df1d51c010VgnVCM2000000c205a0aRCRD";"FERRAZ";"CALLE";"V";"1";"";"";"";"";"MADRID";"MADRID";"28008";"CASA DE CAMPO";"MONCLOA-ARAVACA";"439327";"4475301";"40.42425096551599";"-3.716531855540272";"913 667 415 (Museo de San Isidro / Templo de Debod))";"";"templodebod@madrid.es";"/contenido/entidadesYorganismos/MonumentosEdificiosArtisticos"; 
7071384;"Yacimiento paleontológico. Estación de Metro Carpetana";"";" Visitas todos los días durante la apertura de la estación, de 6 a 1:30 horas ";"";"";"  Yacimiento paleontológico en la estación de Carpetana    Durante las obras de remodelación de la estación de Carpetana se descubrieron restos paleontológicos con valiosos hallazgos del mioceno lo que ha hecho posible una reconstrucción de los paleoambientes en dos yacimientos verticales.   El primero de los espacios, cuenta con un panel en vinilo con imágenes que representan el paleoambiente existente hace más de 15 millones de años con restos mayoritariamente correspondientes a mastodontes de la especie Gonphotherium aungustidens. Además, en esta misma zona expositiva, se ha incluido una reconstrucción de un ciervo denominado Heteroprox con los ambientes y especies vegetales existentes entonces en Carpetana, ya que se han podido conocer gracias a los fósiles de polen y animales recuperados en la excavación.   El segundo espacio recrea el paleoambiente de hace aproximadamente 14 millones de años, y se encuentran representados algunas faunas halladas en las excavaciones como el oso - perro, el oso - lobo, un felino situado en la parte superior de un árbol, una tortuga gigante, rinocerontes y un jabalí.  ";"1";"http://www.madrid.es/vgn-ext-templating/v/index.jsp?vgnextchannel=9e4c43db40317010VgnVCM100000dc0ca8c0RCRD&vgnextoid=05fbb57fd3c70410VgnVCM1000000b205a0aRCRD";"VIA CARPETANA";"CALLE";"V";"328";"";"";"";"";"MADRID";"MADRID";"28047";"ALUCHE";"LATINA";"437061";"4471685";"40.39150793405899";"-3.7428839286586184";"902 444 403 (Información)";"";"";"/contenido/entidadesYorganismos/Museos"; 

